{"type":"FeatureCollection","name":"ne_10m_admin_1_states_provinces_ABW","features":[{"type":"Feature","properties":{"featurecla":"Admin-1 states provinces","scalerank":10,"adm1_code":"ABW-5150","diss_me":5150,"iso_3166_2":"AW-X01~","wikipedia":"","iso_a2":"AW","adm0_sr":3,"name":"Aruba","name_alt":"","name_local":"","type":"","type_en":"","code_local":"","code_hasc":"AW.AA","note":"","hasc_maybe":"","region":"","region_cod":"","provnum_ne":0,"gadm_level":0,"check_me":0,"datarank":10,"abbrev":"","postal":"","area_sqkm":0,"sameascity":-99,"labelrank":20,"name_len":5,"mapcolor9":2,"mapcolor13":9,"fips":"","fips_alt":"","woe_id":23424736,"woe_label":"","woe_name":"Aruba","latitude":12.5147,"longitude":-69.9689,"sov_a3":"NL1","adm0_a3":"ABW","adm0_label":6,"admin":"Aruba","geonunit":"Aruba","gu_a3":"ABW","gn_id":-99,"gn_name":"","gns_id":0,"gns_name":"","gn_level":0,"gn_region":"","gn_a1_code":"AW.","region_sub":"","sub_code":"","gns_level":0,"gns_lang":"","gns_adm1":"","gns_region":"","min_label":11,"max_label":11,"min_zoom":11,"wikidataid":"Q21203","name_ar":"أروبا","name_bn":"আরুবা","name_de":"Aruba","name_en":"Aruba","name_es":"Aruba","name_fr":"Aruba","name_el":"Αρούμπα","name_hi":"अरूबा","name_hu":"Aruba","name_id":"Aruba","name_it":"Aruba","name_ja":"アルバ","name_ko":"아루바","name_nl":"Aruba","name_pl":"Aruba","name_pt":"Aruba","name_ru":"Аруба","name_sv":"Aruba","name_tr":"Aruba","name_vi":"Aruba","name_zh":"阿鲁巴","ne_id":1159315531,"name_he":"ארובה","name_uk":"Аруба","name_ur":"اروبا","name_fa":"آروبا","name_zht":"阿魯巴","FCLASS_ISO":"","FCLASS_US":"","FCLASS_FR":"","FCLASS_RU":"","FCLASS_ES":"","FCLASS_CN":"","FCLASS_TW":"","FCLASS_IN":"","FCLASS_NP":"","FCLASS_PK":"","FCLASS_DE":"","FCLASS_GB":"","FCLASS_BR":"","FCLASS_IL":"","FCLASS_PS":"","FCLASS_SA":"","FCLASS_EG":"","FCLASS_MA":"","FCLASS_PT":"","FCLASS_AR":"","FCLASS_JP":"","FCLASS_KO":"","FCLASS_VN":"","FCLASS_TR":"","FCLASS_ID":"","FCLASS_PL":"","FCLASS_GR":"","FCLASS_IT":"","FCLASS_NL":"","FCLASS_SE":"","FCLASS_BD":"","FCLASS_UA":"","FCLASS_TLC":"","_ziselinTopology":"coast-aligned-to-ne_10m_land"},"geometry":{"type":"Polygon","coordinates":[[[-69.996938,12.577582],[-69.936391,12.531724],[-69.924672,12.519232],[-69.915761,12.497016],[-69.880198,12.453559],[-69.87682,12.427395],[-69.888092,12.41767],[-69.908803,12.417792],[-69.930531,12.425971],[-69.945139,12.440375],[-69.924672,12.440375],[-69.924672,12.447211],[-69.958567,12.463202],[-70.027659,12.522935],[-70.048085,12.531155],[-70.058095,12.537177],[-70.062408,12.54682],[-70.060374,12.556952],[-70.051096,12.574042],[-70.048736,12.583726],[-70.052642,12.600002],[-70.059641,12.614244],[-70.061106,12.625393],[-70.048736,12.632148],[-70.007151,12.585517],[-69.996938,12.577582]]]}}]}