{"type":"FeatureCollection","name":"ne_10m_admin_1_states_provinces_CUW","features":[{"type":"Feature","properties":{"featurecla":"Admin-1 states provinces","scalerank":10,"adm1_code":"CUW-5151","diss_me":5151,"iso_3166_2":"CW-X01~","wikipedia":"","iso_a2":"CW","adm0_sr":3,"name":"Curaçao","name_alt":"","name_local":"","type":"","type_en":"","code_local":"","code_hasc":"CW.X01~","note":"","hasc_maybe":"","region":"","region_cod":"","provnum_ne":0,"gadm_level":0,"check_me":0,"datarank":10,"abbrev":"","postal":"","area_sqkm":0,"sameascity":-99,"labelrank":20,"name_len":7,"mapcolor9":2,"mapcolor13":9,"fips":"","fips_alt":"","woe_id":24549810,"woe_label":"Curacao, AN, Netherlands Antilles","woe_name":"CUW-00 (Curaçao aggregation)","latitude":12.1558,"longitude":-68.955,"sov_a3":"NL1","adm0_a3":"CUW","adm0_label":6,"admin":"Curaçao","geonunit":"Curaçao","gu_a3":"CUW","gn_id":-99,"gn_name":"","gns_id":0,"gns_name":"","gn_level":0,"gn_region":"","gn_a1_code":"CW.","region_sub":"","sub_code":"","gns_level":0,"gns_lang":"","gns_adm1":"","gns_region":"","min_label":11,"max_label":11,"min_zoom":11,"wikidataid":"Q25279","name_ar":"كوراساو","name_bn":"কিউরাসাও","name_de":"Curaçao","name_en":"Curaçao","name_es":"Curazao","name_fr":"Curaçao","name_el":"Κουρασάο","name_hi":"कुराकाओ","name_hu":"Curaçao","name_id":"Curaçao","name_it":"Curaçao","name_ja":"キュラソー","name_ko":"퀴라소","name_nl":"Curaçao","name_pl":"Curaçao","name_pt":"Curaçao","name_ru":"Кюрасао","name_sv":"Curaçao","name_tr":"Curaçao","name_vi":"Curaçao","name_zh":"库拉索","ne_id":1159315529,"name_he":"קוראסאו","name_uk":"Кюрасао","name_ur":"کیوراساؤ","name_fa":"کوراسائو","name_zht":"古拉索","FCLASS_ISO":"","FCLASS_US":"","FCLASS_FR":"","FCLASS_RU":"","FCLASS_ES":"","FCLASS_CN":"","FCLASS_TW":"","FCLASS_IN":"","FCLASS_NP":"","FCLASS_PK":"","FCLASS_DE":"","FCLASS_GB":"","FCLASS_BR":"","FCLASS_IL":"","FCLASS_PS":"","FCLASS_SA":"","FCLASS_EG":"","FCLASS_MA":"","FCLASS_PT":"","FCLASS_AR":"","FCLASS_JP":"","FCLASS_KO":"","FCLASS_VN":"","FCLASS_TR":"","FCLASS_ID":"","FCLASS_PL":"","FCLASS_GR":"","FCLASS_IT":"","FCLASS_NL":"","FCLASS_SE":"","FCLASS_BD":"","FCLASS_UA":"","FCLASS_TLC":"","_ziselinTopology":"coast-aligned-to-ne_10m_land"},"geometry":{"type":"Polygon","coordinates":[[[-68.780751,12.097805],[-68.745229,12.062242],[-68.739735,12.053046],[-68.748647,12.047024],[-68.769846,12.042914],[-68.794749,12.041327],[-68.814809,12.043158],[-68.841176,12.055487],[-68.893422,12.090522],[-68.944732,12.105618],[-68.977773,12.124579],[-69.007436,12.148179],[-69.020253,12.169745],[-69.027211,12.19009],[-69.043609,12.196682],[-69.062896,12.198432],[-69.078603,12.20425],[-69.091908,12.219875],[-69.12267,12.269029],[-69.134389,12.27733],[-69.148101,12.28441],[-69.159535,12.293362],[-69.164296,12.306952],[-69.161977,12.342841],[-69.163808,12.361884],[-69.171742,12.378892],[-69.166127,12.387844],[-69.161204,12.391506],[-69.156239,12.390611],[-69.150624,12.385728],[-69.107777,12.367825],[-69.089589,12.356879],[-69.071523,12.341376],[-69.060414,12.322577],[-69.049957,12.276109],[-69.040761,12.256049],[-69.004018,12.221666],[-68.961293,12.201361],[-68.835276,12.171047],[-68.82079,12.16234],[-68.814809,12.149604],[-68.811838,12.12934],[-68.804026,12.117011],[-68.780751,12.097805]]]}}]}