{"type":"FeatureCollection","name":"ne_10m_admin_1_states_provinces_HMD","features":[{"type":"Feature","properties":{"featurecla":"Admin-1 states provinces","scalerank":10,"adm1_code":"HMD+00?","diss_me":10076,"iso_3166_2":"HM-X01~","wikipedia":"","iso_a2":"HM","adm0_sr":5,"name":"Heard Island and McDonald Islands","name_alt":"","name_local":"","type":"","type_en":"","code_local":"","code_hasc":"HM.HM","note":"","hasc_maybe":"","region":"","region_cod":"","provnum_ne":0,"gadm_level":0,"check_me":0,"datarank":10,"abbrev":"","postal":"","area_sqkm":0,"sameascity":-99,"labelrank":20,"name_len":32,"mapcolor9":2,"mapcolor13":7,"fips":"","fips_alt":"","woe_id":28289411,"woe_label":"","woe_name":"eard Island and McDonald Islands","latitude":-53.1036,"longitude":73.5247,"sov_a3":"AU1","adm0_a3":"HMD","adm0_label":5,"admin":"Heard Island and McDonald Islands","geonunit":"Heard Island and McDonald Islands","gu_a3":"HMD","gn_id":6620381,"gn_name":"Heard Island and McDonald Islands (general)","gns_id":0,"gns_name":"","gn_level":1,"gn_region":"","gn_a1_code":"HM.00","region_sub":"","sub_code":"","gns_level":0,"gns_lang":"","gns_adm1":"","gns_region":"","min_label":18,"max_label":18,"min_zoom":18,"wikidataid":"","name_ar":"جزيرة هيرد وجزر ماكدونالد","name_bn":"হার্ড আইল্যান্ড অ্যান্ড ম্যাকডোনাল্ড আইল্যান্ড","name_de":"Heard und McDonaldinseln","name_en":"Heard Island and McDonald Islands","name_es":"Islas Heard y McDonald","name_fr":"Îles Heard et McDonald","name_el":"Νήσοι Χερντ και Νήσοι ΜακΝτόναλντ","name_hi":"हर्ड द्वीप और मैकडॉनल्ड द्वीप","name_hu":"Heard-sziget és McDonald-szigetek","name_id":"Pulau Heard dan Kepulauan McDonald","name_it":"Isole Heard e McDonald","name_ja":"ハード島とマクドナルド諸島","name_ko":"허드 아일랜드 앤 맥도날드 아일랜즈","name_nl":"Heard en MacDonaldeilanden","name_pl":"Wyspy Heard i MacDonalda","name_pt":"Ilha Heard e Ilhas McDonald","name_ru":"остров Херд и острова́ Макдо́нальд","name_sv":"Heard- och McDonaldsöarna","name_tr":"Heard Adası ve McDonald Adaları","name_vi":"Đảo Heard và Quần đảo McDonald","name_zh":"赫德岛和麦克唐纳群岛","ne_id":1159315607,"name_he":"איי הרד ואיי מקדונלד","name_uk":"Острови Герд і Макдональд","name_ur":"ہرڈ جزیرہ اور مک ڈونلڈ جزائر","name_fa":"جزایر مکدونالد و جزیره هرد","name_zht":"赫德島和麥克唐納群島","FCLASS_ISO":"","FCLASS_US":"","FCLASS_FR":"","FCLASS_RU":"","FCLASS_ES":"","FCLASS_CN":"","FCLASS_TW":"","FCLASS_IN":"","FCLASS_NP":"","FCLASS_PK":"","FCLASS_DE":"","FCLASS_GB":"","FCLASS_BR":"","FCLASS_IL":"","FCLASS_PS":"","FCLASS_SA":"","FCLASS_EG":"","FCLASS_MA":"","FCLASS_PT":"","FCLASS_AR":"","FCLASS_JP":"","FCLASS_KO":"","FCLASS_VN":"","FCLASS_TR":"","FCLASS_ID":"","FCLASS_PL":"","FCLASS_GR":"","FCLASS_IT":"","FCLASS_NL":"","FCLASS_SE":"","FCLASS_BD":"","FCLASS_UA":"","FCLASS_TLC":"","_ziselinTopology":"coast-aligned-to-ne_10m_land"},"geometry":{"type":"Polygon","coordinates":[[[73.735118,-53.1124],[73.761892,-53.11891],[73.789073,-53.120538],[73.812185,-53.118504],[73.661632,-53.146661],[73.609548,-53.179864],[73.580821,-53.187595],[73.507335,-53.19256],[73.473399,-53.189223],[73.440196,-53.173272],[73.430431,-53.165297],[73.404145,-53.139337],[73.370942,-53.090509],[73.36378,-53.074802],[73.371267,-53.06463],[73.359711,-53.058852],[73.353282,-53.05169],[73.354177,-53.044203],[73.364431,-53.037286],[73.344737,-53.029229],[73.328868,-53.025079],[73.271007,-53.021742],[73.253673,-53.015069],[73.24171,-53.002211],[73.236013,-52.982029],[73.269379,-52.975274],[73.296886,-52.961602],[73.330903,-52.984796],[73.337169,-52.985772],[73.344574,-52.996515],[73.361095,-53.00921],[73.377452,-53.017022],[73.384939,-53.013116],[73.389171,-52.997817],[73.399587,-52.990981],[73.412934,-52.992852],[73.426524,-53.003188],[73.412852,-53.009373],[73.425629,-53.025323],[73.447032,-53.02809],[73.470225,-53.02158],[73.487966,-53.009373],[73.50766,-53.015313],[73.56422,-53.016778],[73.587576,-53.026788],[73.598481,-53.033868],[73.620942,-53.039646],[73.632579,-53.044122],[73.640147,-53.050714],[73.65561,-53.067966],[73.663341,-53.071466],[73.688975,-53.090265],[73.699474,-53.100844],[73.735118,-53.1124]]]}}]}