{"type":"FeatureCollection","name":"ne_10m_admin_1_states_provinces_NFK","features":[{"type":"Feature","properties":{"featurecla":"Admin-1 states provinces","scalerank":10,"adm1_code":"NFK+00?","diss_me":10124,"iso_3166_2":"NF-X01~","wikipedia":"","iso_a2":"NF","adm0_sr":5,"name":"Norfolk Island","name_alt":"","name_local":"","type":"","type_en":"","code_local":"","code_hasc":"NF.NF","note":"","hasc_maybe":"","region":"","region_cod":"","provnum_ne":0,"gadm_level":0,"check_me":0,"datarank":10,"abbrev":"","postal":"","area_sqkm":0,"sameascity":-99,"labelrank":20,"name_len":14,"mapcolor9":2,"mapcolor13":7,"fips":"","fips_alt":"","woe_id":23424905,"woe_label":"","woe_name":"Norfolk Island","latitude":-29.033,"longitude":167.954,"sov_a3":"AU1","adm0_a3":"NFK","adm0_label":5,"admin":"Norfolk Island","geonunit":"Norfolk Island","gu_a3":"NFK","gn_id":0,"gn_name":"","gns_id":0,"gns_name":"","gn_level":0,"gn_region":"","gn_a1_code":"NF.","region_sub":"","sub_code":"","gns_level":0,"gns_lang":"","gns_adm1":"","gns_region":"","min_label":9,"max_label":11,"min_zoom":9,"wikidataid":"","name_ar":"جزيرة نورفولك","name_bn":"নরফোক আইল্যান্ড","name_de":"Norfolkinsel","name_en":"Norfolk Island","name_es":"Isla Norfolk","name_fr":"Île Norfolk","name_el":"Νήσος Νόρφολκ","name_hi":"नॉरफ़ॉक द्वीप","name_hu":"Norfolk-sziget","name_id":"Pulau Norfolk","name_it":"Isola Norfolk","name_ja":"ノーフォーク島","name_ko":"노퍽 아일랜드","name_nl":"Norfolkeiland","name_pl":"Norfolk","name_pt":"Ilha Norfolk","name_ru":"О́стров Но́рфолк","name_sv":"Norfolkön","name_tr":"Norfolk Adası","name_vi":"Đảo Norfolk","name_zh":"诺福克岛","ne_id":1159315615,"name_he":"האי נורפולק","name_uk":"острів Норфолк","name_ur":"نارفوک جزیرہ","name_fa":"جزیره نورفولک","name_zht":"諾福克島","FCLASS_ISO":"","FCLASS_US":"","FCLASS_FR":"","FCLASS_RU":"","FCLASS_ES":"","FCLASS_CN":"","FCLASS_TW":"","FCLASS_IN":"","FCLASS_NP":"","FCLASS_PK":"","FCLASS_DE":"","FCLASS_GB":"","FCLASS_BR":"","FCLASS_IL":"","FCLASS_PS":"","FCLASS_SA":"","FCLASS_EG":"","FCLASS_MA":"","FCLASS_PT":"","FCLASS_AR":"","FCLASS_JP":"","FCLASS_KO":"","FCLASS_VN":"","FCLASS_TR":"","FCLASS_ID":"","FCLASS_PL":"","FCLASS_GR":"","FCLASS_IT":"","FCLASS_NL":"","FCLASS_SE":"","FCLASS_BD":"","FCLASS_UA":"","FCLASS_TLC":"","_ziselinTopology":"coast-aligned-to-ne_10m_land"},"geometry":{"type":"Polygon","coordinates":[[[167.984141,-29.017836],[167.996349,-29.025649],[167.99464,-29.042576],[167.985037,-29.059259],[167.973481,-29.066339],[167.970063,-29.068943],[167.967947,-29.072035],[167.966482,-29.075779],[167.966645,-29.080011],[167.960704,-29.065606],[167.95045,-29.056573],[167.939708,-29.055759],[167.932628,-29.066339],[167.926443,-29.066339],[167.924327,-29.055597],[167.920177,-29.045505],[167.918305,-29.036391],[167.922374,-29.028741],[167.929942,-29.019464],[167.930512,-29.01214],[167.924571,-29.008722],[167.91212,-29.011651],[167.926524,-28.997491],[167.945567,-29.001235],[167.965831,-29.011814],[167.984141,-29.017836]]]}}]}