{"schema":"ziselin-boundary-set-country-chunk-v1","id":"natural-earth:10m:admin1:sgp","title":"Natural Earth 10m Admin1 · SGP","provider":"Natural Earth","admin_level":"ADM1","rank":2,"country_iso3":"SGP","generated_from":"admin1-by-country","source":{"label":"Natural Earth","url":"https://www.naturalearthdata.com/","note":"Local EarthMap engine pilot build from Natural Earth 10m Admin-1, coast-aligned to the Natural Earth land layer."},"license":{"id":"public-domain","label":"Public Domain","url":"https://www.naturalearthdata.com/about/terms-of-use/","detail":"Natural Earth public domain map data.","compatibility":{"wikimedia":true,"openstreetmap":true,"attribution_required":false}},"features":[{"type":"Feature","id":"natural-earth:10m:admin1:sgp:sg-05","stable_id":"natural-earth:10m:admin1:sgp:sg-05","version_id":"natural-earth:10m:admin1:sgp:sg-05@natural-earth-10m-reference","name":"South West Singapore","wikidata_id":"Q5784126","parent_id":"SGP","rank":2,"valid_from":"","valid_to":null,"valid_precision":"unknown","temporal_status":"undated_reference","properties":{"featurecla":"Admin-1 states provinces","scalerank":10,"adm1_code":"SGP-4872","diss_me":4872,"iso_3166_2":"SG-05","wikipedia":"http://en.wikipedia.org/wiki/South_West_Community_Development_Council","iso_a2":"SG","adm0_sr":3,"name":"South West","name_alt":"","name_local":"","type":"","type_en":"","code_local":"","code_hasc":"SG.SW","note":"","hasc_maybe":"","region":"","region_cod":"","provnum_ne":0,"gadm_level":0,"check_me":0,"datarank":10,"abbrev":"","postal":"","area_sqkm":0,"sameascity":-99,"labelrank":20,"name_len":10,"mapcolor9":7,"mapcolor13":3,"fips":"","fips_alt":"","woe_id":24703043,"woe_label":"South West, SG, Singapore","woe_name":"South West","latitude":1.33718,"longitude":103.705,"sov_a3":"SGP","adm0_a3":"SGP","adm0_label":3,"admin":"Singapore","geonunit":"Singapore","gu_a3":"SGP","gn_id":7535957,"gn_name":"South West Community Development Council","gns_id":0,"gns_name":"","gn_level":1,"gn_region":"","gn_a1_code":"SG.05","region_sub":"","sub_code":"","gns_level":0,"gns_lang":"","gns_adm1":"","gns_region":"","min_label":11,"max_label":11,"min_zoom":11,"wikidataid":"Q5784126","name_ar":"الجنوب الغربي","name_bn":"দক্ষিণ পশ্চিম","name_de":"South West Singapore","name_en":"South West Community Development Council","name_es":"Consejo del Sudoeste","name_fr":"du Sud-Ouest","name_el":"Νοτιοδυτικά","name_hi":"दक्षिण पश्चिम","name_hu":"Délnyugat","name_id":"Dewan Pengembangan Masyarakat Barat Daya","name_it":"Sud-Ovest","name_ja":"南西地区","name_ko":"남서부 지구 사회 발전 이사회","name_nl":"South West","name_pl":"Południowy-zachód","name_pt":"Sudoeste","name_ru":"Юго-Западный регион","name_sv":"Sydvästra Singapore","name_tr":"Güneybatı","name_vi":"Vùng Tây Nam","name_zh":"西南社区发展理事会","ne_id":1159315969,"name_he":"דרום מערב","name_uk":"Саус-Вест","name_ur":"جنوب مغربی کمیونٹی ڈیولپمنٹ کونسل","name_fa":"جنوب غرب","name_zht":"西南社区发展理事会","FCLASS_ISO":"","FCLASS_US":"","FCLASS_FR":"","FCLASS_RU":"","FCLASS_ES":"","FCLASS_CN":"","FCLASS_TW":"","FCLASS_IN":"","FCLASS_NP":"","FCLASS_PK":"","FCLASS_DE":"","FCLASS_GB":"","FCLASS_BR":"","FCLASS_IL":"","FCLASS_PS":"","FCLASS_SA":"","FCLASS_EG":"","FCLASS_MA":"","FCLASS_PT":"","FCLASS_AR":"","FCLASS_JP":"","FCLASS_KO":"","FCLASS_VN":"","FCLASS_TR":"","FCLASS_ID":"","FCLASS_PL":"","FCLASS_GR":"","FCLASS_IT":"","FCLASS_NL":"","FCLASS_SE":"","FCLASS_BD":"","FCLASS_UA":"","FCLASS_TLC":"","_ziselinTopology":"coast-aligned-to-ne_10m_land","ziselin_archive_type":"Gliedstaat / Provinz"},"match_tokens":["natural-earth:10m:admin1:sgp:sg-05","SG-05","SGP-4872","SG.SW","South West Singapore","South West","South West Community Development Council","Q5784126"],"bbox":[103.640391,1.264309,103.846934,1.430976],"geometry":{"type":"Polygon","coordinates":[[[103.846934,1.271918],[103.844086,1.2685],[103.838878,1.266262],[103.82602,1.264309],[103.801606,1.264797],[103.789561,1.26789],[103.784434,1.273871],[103.77589,1.287584],[103.755138,1.297105],[103.730154,1.302924],[103.708751,1.305243],[103.665294,1.304104],[103.647634,1.308417],[103.640391,1.322252],[103.644705,1.338039],[103.674571,1.380316],[103.678884,1.399237],[103.683849,1.409898],[103.695079,1.421332],[103.708344,1.429389],[103.717947,1.430976],[103.739757,1.428127],[103.762218,1.430976],[103.761042,1.421329],[103.7591,1.410325],[103.758453,1.40191],[103.758453,1.390259],[103.763631,1.383139],[103.770751,1.376019],[103.777871,1.370194],[103.78758,1.362427],[103.788227,1.355954],[103.784344,1.351423],[103.78046,1.347539],[103.782402,1.343008],[103.790169,1.340419],[103.797936,1.333946],[103.806351,1.324884],[103.807646,1.311939],[103.806998,1.303524],[103.809587,1.293815],[103.819297,1.283459],[103.828358,1.278281],[103.838878,1.266262],[103.846934,1.271918]]]}},{"type":"Feature","id":"natural-earth:10m:admin1:sgp:sg-01","stable_id":"natural-earth:10m:admin1:sgp:sg-01","version_id":"natural-earth:10m:admin1:sgp:sg-01@natural-earth-10m-reference","name":"Central Singapore","wikidata_id":"Q2544592","parent_id":"SGP","rank":2,"valid_from":"","valid_to":null,"valid_precision":"unknown","temporal_status":"undated_reference","properties":{"featurecla":"Admin-1 states provinces","scalerank":10,"adm1_code":"SGP-4871","diss_me":4871,"iso_3166_2":"SG-01","wikipedia":"http://en.wikipedia.org/wiki/Central_Singapore_Community_Development_Council","iso_a2":"SG","adm0_sr":3,"name":"Central Singapore","name_alt":"","name_local":"","type":"","type_en":"","code_local":"","code_hasc":"SG.CS","note":"","hasc_maybe":"","region":"","region_cod":"","provnum_ne":0,"gadm_level":0,"check_me":0,"datarank":10,"abbrev":"","postal":"","area_sqkm":0,"sameascity":1,"labelrank":20,"name_len":17,"mapcolor9":7,"mapcolor13":3,"fips":"","fips_alt":"","woe_id":24703044,"woe_label":"Central Singapore, SG, Singapore","woe_name":"Central Singapore","latitude":1.31704,"longitude":103.846,"sov_a3":"SGP","adm0_a3":"SGP","adm0_label":3,"admin":"Singapore","geonunit":"Singapore","gu_a3":"SGP","gn_id":7535954,"gn_name":"Central Singapore Community Development Council","gns_id":0,"gns_name":"","gn_level":1,"gn_region":"","gn_a1_code":"SG.01","region_sub":"","sub_code":"","gns_level":0,"gns_lang":"","gns_adm1":"","gns_region":"","min_label":11,"max_label":11,"min_zoom":11,"wikidataid":"Q2544592","name_ar":"سنغافورة الوسطى","name_bn":"সেন্ট্রাল সিঙ্গাপুর","name_de":"Central Singapore","name_en":"Central Singapore Community Development Council","name_es":"Consejo Central","name_fr":"Singapour central","name_el":"Κεντρική Σιγκαπούρη","name_hi":"सेंट्रल सिंगापुर","name_hu":"Közép-Szingapúr","name_id":"Dewan Pengembangan Masyarakat Singapura Tengah","name_it":"Central Singapore","name_ja":"シンガポール中央地区","name_ko":"중앙싱가포르 지구 사회 발전 이사회","name_nl":"Central Singapore","name_pl":"Centralna część Singapuru","name_pt":"Região Central de Singapura","name_ru":"Центральный регион (Сингапур)","name_sv":"Centralregionen Singapore","name_tr":"Central Singapore","name_vi":"Vùng Trung tâm Singapore","name_zh":"中区社区发展理事会","ne_id":1159315513,"name_he":"מרכז סינגפור","name_uk":"Центральний Сингапур","name_ur":"مرکزی سنگاپور کمیونٹی ڈیولپمنٹ کونسل","name_fa":"سنگاپور مرکزی","name_zht":"中區社區發展理事會","FCLASS_ISO":"","FCLASS_US":"","FCLASS_FR":"","FCLASS_RU":"","FCLASS_ES":"","FCLASS_CN":"","FCLASS_TW":"","FCLASS_IN":"","FCLASS_NP":"","FCLASS_PK":"","FCLASS_DE":"","FCLASS_GB":"","FCLASS_BR":"","FCLASS_IL":"","FCLASS_PS":"","FCLASS_SA":"","FCLASS_EG":"","FCLASS_MA":"","FCLASS_PT":"","FCLASS_AR":"","FCLASS_JP":"","FCLASS_KO":"","FCLASS_VN":"","FCLASS_TR":"","FCLASS_ID":"","FCLASS_PL":"","FCLASS_GR":"","FCLASS_IT":"","FCLASS_NL":"","FCLASS_SE":"","FCLASS_BD":"","FCLASS_UA":"","FCLASS_TLC":"","_ziselinTopology":"coast-aligned-to-ne_10m_land","ziselin_archive_type":"Gliedstaat / Provinz"},"match_tokens":["natural-earth:10m:admin1:sgp:sg-01","SG-01","SGP-4871","SG.CS","Central Singapore","Central Singapore Community Development Council","Q2544592"],"bbox":[103.806351,1.266262,103.909439,1.426579],"geometry":{"type":"Polygon","coordinates":[[[103.898102,1.305241],[103.887706,1.301256],[103.852712,1.277289],[103.846934,1.271918],[103.838878,1.266262],[103.828358,1.278281],[103.819297,1.283459],[103.809587,1.293815],[103.806998,1.303524],[103.807646,1.311939],[103.806351,1.324884],[103.814766,1.331357],[103.823827,1.340419],[103.823827,1.350776],[103.819297,1.357896],[103.824475,1.365663],[103.834831,1.371488],[103.842598,1.377961],[103.841304,1.385728],[103.83742,1.393496],[103.830948,1.400616],[103.833537,1.40903],[103.841304,1.416798],[103.850366,1.417445],[103.862664,1.416798],[103.874315,1.418092],[103.88147,1.426579],[103.909439,1.41261],[103.904737,1.406441],[103.900853,1.396732],[103.898911,1.386376],[103.890497,1.383139],[103.884024,1.379903],[103.876904,1.372783],[103.87302,1.363074],[103.87302,1.353365],[103.874962,1.343008],[103.880788,1.333299],[103.887908,1.322295],[103.895028,1.310644],[103.898102,1.305241]]]}},{"type":"Feature","id":"natural-earth:10m:admin1:sgp:sg-04","stable_id":"natural-earth:10m:admin1:sgp:sg-04","version_id":"natural-earth:10m:admin1:sgp:sg-04@natural-earth-10m-reference","name":"Südost","wikidata_id":"Q1687545","parent_id":"SGP","rank":2,"valid_from":"","valid_to":null,"valid_precision":"unknown","temporal_status":"undated_reference","properties":{"featurecla":"Admin-1 states provinces","scalerank":10,"adm1_code":"SGP-4875","diss_me":4875,"iso_3166_2":"SG-04","wikipedia":"http://en.wikipedia.org/wiki/South_East_Community_Development_Council","iso_a2":"SG","adm0_sr":3,"name":"South East","name_alt":"","name_local":"","type":"","type_en":"","code_local":"","code_hasc":"SG.SE","note":"","hasc_maybe":"","region":"","region_cod":"","provnum_ne":0,"gadm_level":0,"check_me":0,"datarank":10,"abbrev":"","postal":"","area_sqkm":0,"sameascity":-99,"labelrank":20,"name_len":10,"mapcolor9":7,"mapcolor13":3,"fips":"","fips_alt":"","woe_id":24703041,"woe_label":"South East, SG, Singapore","woe_name":"South East","latitude":1.33524,"longitude":103.932,"sov_a3":"SGP","adm0_a3":"SGP","adm0_label":3,"admin":"Singapore","geonunit":"Singapore","gu_a3":"SGP","gn_id":7535956,"gn_name":"South East Community Development Council","gns_id":0,"gns_name":"","gn_level":1,"gn_region":"","gn_a1_code":"SG.04","region_sub":"","sub_code":"","gns_level":0,"gns_lang":"","gns_adm1":"","gns_region":"","min_label":11,"max_label":11,"min_zoom":11,"wikidataid":"Q1687545","name_ar":"الجنوب الشرقي","name_bn":"দক্ষিণ -পূর্ব","name_de":"Südost","name_en":"South East Community Development Council","name_es":"Consejo del Sudeste","name_fr":"du Sud-Est","name_el":"Σάουθ Ιστ","name_hi":"दक्षिण पूर्व","name_hu":"Délkelet","name_id":"Dewan Pengembangan Masyarakat Tenggara","name_it":"Sud-Est","name_ja":"南東地区","name_ko":"남동부 지구 사회 발전 이사회","name_nl":"South East","name_pl":"Południowy-wschód","name_pt":"Sudeste","name_ru":"Юго-Восточный регион","name_sv":"Sydöstra Singapore","name_tr":"Güneydoğu","name_vi":"Vùng Đông Nam","name_zh":"东南社区发展理事会","ne_id":1159315975,"name_he":"דרום מזרח","name_uk":"Саус-Іст","name_ur":"جنوب مشرقی کمیونٹی ڈیولپمنٹ کونسل","name_fa":"جنوب شرق","name_zht":"东南社区发展理事会","FCLASS_ISO":"","FCLASS_US":"","FCLASS_FR":"","FCLASS_RU":"","FCLASS_ES":"","FCLASS_CN":"","FCLASS_TW":"","FCLASS_IN":"","FCLASS_NP":"","FCLASS_PK":"","FCLASS_DE":"","FCLASS_GB":"","FCLASS_BR":"","FCLASS_IL":"","FCLASS_PS":"","FCLASS_SA":"","FCLASS_EG":"","FCLASS_MA":"","FCLASS_PT":"","FCLASS_AR":"","FCLASS_JP":"","FCLASS_KO":"","FCLASS_VN":"","FCLASS_TR":"","FCLASS_ID":"","FCLASS_PL":"","FCLASS_GR":"","FCLASS_IT":"","FCLASS_NL":"","FCLASS_SE":"","FCLASS_BD":"","FCLASS_UA":"","FCLASS_TLC":"","_ziselinTopology":"coast-aligned-to-ne_10m_land","ziselin_archive_type":"Gliedstaat / Provinz"},"match_tokens":["natural-earth:10m:admin1:sgp:sg-04","SG-04","SGP-4875","SG.SE","Südost","South East","South East Community Development Council","Q1687545"],"bbox":[103.87302,1.305241,104.003429,1.389958],"geometry":{"type":"Polygon","coordinates":[[[103.965807,1.389958],[103.985688,1.385443],[103.999522,1.380316],[104.003429,1.374172],[103.991873,1.354926],[103.974864,1.334459],[103.954356,1.318101],[103.931895,1.311469],[103.907237,1.308743],[103.898102,1.305241],[103.895028,1.310644],[103.887908,1.322295],[103.880788,1.333299],[103.874962,1.343008],[103.87302,1.353365],[103.87302,1.363074],[103.876904,1.372783],[103.884024,1.379903],[103.890497,1.383139],[103.898911,1.386376],[103.897617,1.374725],[103.906032,1.368252],[103.917035,1.364368],[103.929981,1.358543],[103.935159,1.354012],[103.942279,1.354012],[103.945515,1.365016],[103.945515,1.372783],[103.954577,1.376667],[103.962345,1.383139],[103.965807,1.389958]]]}},{"type":"Feature","id":"natural-earth:10m:admin1:sgp:sg-02","stable_id":"natural-earth:10m:admin1:sgp:sg-02","version_id":"natural-earth:10m:admin1:sgp:sg-02@natural-earth-10m-reference","name":"North East","wikidata_id":"Q3710534","parent_id":"SGP","rank":2,"valid_from":"","valid_to":null,"valid_precision":"unknown","temporal_status":"undated_reference","properties":{"featurecla":"Admin-1 states provinces","scalerank":10,"adm1_code":"SGP-4874","diss_me":4874,"iso_3166_2":"SG-02","wikipedia":"http://en.wikipedia.org/wiki/North_East_Community_Development_Council","iso_a2":"SG","adm0_sr":3,"name":"North East","name_alt":"","name_local":"","type":"","type_en":"","code_local":"","code_hasc":"SG.NE","note":"","hasc_maybe":"","region":"","region_cod":"","provnum_ne":0,"gadm_level":0,"check_me":0,"datarank":10,"abbrev":"","postal":"","area_sqkm":0,"sameascity":-99,"labelrank":20,"name_len":10,"mapcolor9":7,"mapcolor13":3,"fips":"","fips_alt":"","woe_id":24703042,"woe_label":"North East, SG, Singapore","woe_name":"North East","latitude":1.38379,"longitude":103.925,"sov_a3":"SGP","adm0_a3":"SGP","adm0_label":3,"admin":"Singapore","geonunit":"Singapore","gu_a3":"SGP","gn_id":7535955,"gn_name":"North East Community Development Region","gns_id":0,"gns_name":"","gn_level":1,"gn_region":"","gn_a1_code":"SG.02","region_sub":"","sub_code":"","gns_level":0,"gns_lang":"","gns_adm1":"","gns_region":"","min_label":11,"max_label":11,"min_zoom":11,"wikidataid":"Q3710534","name_ar":"الشمال الشرقي","name_bn":"নর্থ ইস্ট","name_de":"North East","name_en":"North East Community Development Council","name_es":"Consejo del Noreste","name_fr":"du Nord-Est","name_el":"Βορειοανατολικά","name_hi":"नॉर्थ ईस्ट","name_hu":"Északkelet","name_id":"Dewan Pengembangan Masyarakat Timur Laut","name_it":"Nordorientale","name_ja":"北東地区","name_ko":"북동부 지구 사회 발전 이사회","name_nl":"North East Community Development Council","name_pl":"North East","name_pt":"Nordeste","name_ru":"Северо-Восточный регион","name_sv":"North East Region","name_tr":"Kuzey Doğu","name_vi":"Vùng Đông Bắc","name_zh":"东北社区发展理事会","ne_id":1159315973,"name_he":"צפון מזרח","name_uk":"Норт-Іст","name_ur":"شمال مشرقی کمیونٹی ڈیولپمنٹ کونسل","name_fa":"شمال شرق","name_zht":"东北社区发展理事会","FCLASS_ISO":"","FCLASS_US":"","FCLASS_FR":"","FCLASS_RU":"","FCLASS_ES":"","FCLASS_CN":"","FCLASS_TW":"","FCLASS_IN":"","FCLASS_NP":"","FCLASS_PK":"","FCLASS_DE":"","FCLASS_GB":"","FCLASS_BR":"","FCLASS_IL":"","FCLASS_PS":"","FCLASS_SA":"","FCLASS_EG":"","FCLASS_MA":"","FCLASS_PT":"","FCLASS_AR":"","FCLASS_JP":"","FCLASS_KO":"","FCLASS_VN":"","FCLASS_TR":"","FCLASS_ID":"","FCLASS_PL":"","FCLASS_GR":"","FCLASS_IT":"","FCLASS_NL":"","FCLASS_SE":"","FCLASS_BD":"","FCLASS_UA":"","FCLASS_TLC":"","_ziselinTopology":"coast-aligned-to-ne_10m_land","ziselin_archive_type":"Gliedstaat / Provinz"},"match_tokens":["natural-earth:10m:admin1:sgp:sg-02","SG-02","SGP-4874","SG.NE","North East","North East Community Development Council","North East Community Development Region","Q3710534"],"bbox":[103.897617,1.354012,103.965807,1.41261],"geometry":{"type":"Polygon","coordinates":[[[103.909439,1.41261],[103.932465,1.401109],[103.960785,1.391099],[103.965807,1.389958],[103.962345,1.383139],[103.954577,1.376667],[103.945515,1.372783],[103.945515,1.365016],[103.942279,1.354012],[103.935159,1.354012],[103.929981,1.358543],[103.917035,1.364368],[103.906032,1.368252],[103.897617,1.374725],[103.898911,1.386376],[103.900853,1.396732],[103.904737,1.406441],[103.909439,1.41261]]]}},{"type":"Feature","id":"natural-earth:10m:admin1:sgp:sg-03","stable_id":"natural-earth:10m:admin1:sgp:sg-03","version_id":"natural-earth:10m:admin1:sgp:sg-03@natural-earth-10m-reference","name":"North West","wikidata_id":"","parent_id":"SGP","rank":2,"valid_from":"","valid_to":null,"valid_precision":"unknown","temporal_status":"undated_reference","properties":{"featurecla":"Admin-1 states provinces","scalerank":10,"adm1_code":"SGP-4873","diss_me":4873,"iso_3166_2":"SG-03","wikipedia":"http://en.wikipedia.org/wiki/North_West_Community_Development_Council","iso_a2":"SG","adm0_sr":3,"name":"North West","name_alt":"","name_local":"","type":"","type_en":"","code_local":"","code_hasc":"SG.NW","note":"","hasc_maybe":"","region":"","region_cod":"","provnum_ne":0,"gadm_level":0,"check_me":0,"datarank":10,"abbrev":"","postal":"","area_sqkm":0,"sameascity":-99,"labelrank":20,"name_len":10,"mapcolor9":7,"mapcolor13":3,"fips":"","fips_alt":"","woe_id":24703045,"woe_label":"North West, SG, Singapore","woe_name":"North West","latitude":1.41809,"longitude":103.808,"sov_a3":"SGP","adm0_a3":"SGP","adm0_label":3,"admin":"Singapore","geonunit":"Singapore","gu_a3":"SGP","gn_id":7535958,"gn_name":"North West Community Development Council","gns_id":0,"gns_name":"","gn_level":1,"gn_region":"","gn_a1_code":"SG.03","region_sub":"","sub_code":"","gns_level":0,"gns_lang":"","gns_adm1":"","gns_region":"","min_label":11,"max_label":11,"min_zoom":11,"wikidataid":"","name_ar":"نورث ويست","name_bn":"নর্থ ওয়েস্ট","name_de":"North West","name_en":"North West","name_es":"Noroeste","name_fr":"Angleterre du Nord-Ouest","name_el":"Νορθ Γουέστ","name_hi":"उत्तर पश्चिम","name_hu":"Északnyugat","name_id":"North West","name_it":"Nord-Ovest","name_ja":"ノース・ウェスト","name_ko":"노스 웨스트 케이프","name_nl":"North West","name_pl":"Północny-zachód","name_pt":"Noroeste","name_ru":"Северо-Западный регион","name_sv":"North West Region","name_tr":"Kuzeybatı","name_vi":"Vùng Tây Bắc","name_zh":"西北","ne_id":1159315971,"name_he":"צפון מערב","name_uk":"Норт-Вест","name_ur":"نارتھ ویسٹ","name_fa":"شمال غرب","name_zht":"西北","FCLASS_ISO":"","FCLASS_US":"","FCLASS_FR":"","FCLASS_RU":"","FCLASS_ES":"","FCLASS_CN":"","FCLASS_TW":"","FCLASS_IN":"","FCLASS_NP":"","FCLASS_PK":"","FCLASS_DE":"","FCLASS_GB":"","FCLASS_BR":"","FCLASS_IL":"","FCLASS_PS":"","FCLASS_SA":"","FCLASS_EG":"","FCLASS_MA":"","FCLASS_PT":"","FCLASS_AR":"","FCLASS_JP":"","FCLASS_KO":"","FCLASS_VN":"","FCLASS_TR":"","FCLASS_ID":"","FCLASS_PL":"","FCLASS_GR":"","FCLASS_IT":"","FCLASS_NL":"","FCLASS_SE":"","FCLASS_BD":"","FCLASS_UA":"","FCLASS_TLC":"","_ziselinTopology":"coast-aligned-to-ne_10m_land","ziselin_archive_type":"Gliedstaat / Provinz"},"match_tokens":["natural-earth:10m:admin1:sgp:sg-03","SG-03","SGP-4873","SG.NW","North West","North West Community Development Council"],"bbox":[103.758453,1.324884,103.88147,1.448635],"geometry":{"type":"Polygon","coordinates":[[[103.762218,1.430976],[103.79005,1.444281],[103.804942,1.448635],[103.831554,1.447089],[103.857188,1.438707],[103.88147,1.426579],[103.874315,1.418092],[103.862664,1.416798],[103.850366,1.417445],[103.841304,1.416798],[103.833537,1.40903],[103.830948,1.400616],[103.83742,1.393496],[103.841304,1.385728],[103.842598,1.377961],[103.834831,1.371488],[103.824475,1.365663],[103.819297,1.357896],[103.823827,1.350776],[103.823827,1.340419],[103.814766,1.331357],[103.806351,1.324884],[103.797936,1.333946],[103.790169,1.340419],[103.782402,1.343008],[103.78046,1.347539],[103.784344,1.351423],[103.788227,1.355954],[103.78758,1.362427],[103.777871,1.370194],[103.770751,1.376019],[103.763631,1.383139],[103.758453,1.390259],[103.758453,1.40191],[103.7591,1.410325],[103.761042,1.421329],[103.762218,1.430976]]]}}]}
