{"schema":"ziselin-boundary-set-country-chunk-v1","id":"natural-earth:10m:admin1:maf","title":"Natural Earth 10m Admin1 · MAF","provider":"Natural Earth","admin_level":"ADM1","rank":2,"country_iso3":"MAF","generated_from":"admin1-by-country","source":{"label":"Natural Earth","url":"https://www.naturalearthdata.com/","note":"Local EarthMap engine pilot build from Natural Earth 10m Admin-1, coast-aligned to the Natural Earth land layer."},"license":{"id":"public-domain","label":"Public Domain","url":"https://www.naturalearthdata.com/about/terms-of-use/","detail":"Natural Earth public domain map data.","compatibility":{"wikimedia":true,"openstreetmap":true,"attribution_required":false}},"features":[{"type":"Feature","id":"natural-earth:10m:admin1:maf:mf-x00","stable_id":"natural-earth:10m:admin1:maf:mf-x00","version_id":"natural-earth:10m:admin1:maf:mf-x00@natural-earth-10m-reference","name":"Saint-Martin","wikidata_id":"Q126125","parent_id":"MAF","rank":2,"valid_from":"","valid_to":null,"valid_precision":"unknown","temporal_status":"undated_reference","properties":{"featurecla":"Admin-1 states provinces","scalerank":10,"adm1_code":"MAF-5145","diss_me":5145,"iso_3166_2":"MF-X00~","wikipedia":"","iso_a2":"MF","adm0_sr":3,"name":"St. Martin","name_alt":"","name_local":"","type":"","type_en":"","code_local":"","code_hasc":"MF.SM","note":"","hasc_maybe":"","region":"","region_cod":"","provnum_ne":0,"gadm_level":0,"check_me":0,"datarank":10,"abbrev":"","postal":"","area_sqkm":0,"sameascity":-99,"labelrank":20,"name_len":10,"mapcolor9":9,"mapcolor13":11,"fips":"","fips_alt":"","woe_id":56042305,"woe_label":"","woe_name":"Saint-Martin","latitude":18.0799,"longitude":-63.078,"sov_a3":"FR1","adm0_a3":"MAF","adm0_label":8,"admin":"Saint Martin","geonunit":"Saint Martin","gu_a3":"MAF","gn_id":3578419,"gn_name":"Arrondissement de Saint-Martin-Saint-Barthelemy","gns_id":0,"gns_name":"","gn_level":2,"gn_region":"","gn_a1_code":"MF.3578419","region_sub":"","sub_code":"","gns_level":0,"gns_lang":"","gns_adm1":"","gns_region":"","min_label":11,"max_label":11,"min_zoom":11,"wikidataid":"Q126125","name_ar":"تجمع سان مارتين","name_bn":"সেন্ট মার্টিন","name_de":"Saint-Martin","name_en":"Saint Martin","name_es":"San Martín","name_fr":"Saint-Martin","name_el":"Άγιος Μαρτίνος","name_hi":"सेंट मार्टिन की सामूहिकता","name_hu":"Saint-Martin","name_id":"Saint Martin","name_it":"Saint-Martin","name_ja":"サン・マルタン","name_ko":"생마르탱","name_nl":"Sint-Maarten","name_pl":"Saint-Martin","name_pt":"São Martinho","name_ru":"Сен-Мартен","name_sv":"Saint Martin","name_tr":"Saint Martin","name_vi":"Saint-Martin","name_zh":"法属圣马丁","ne_id":1159315651,"name_he":"סן מרטן","name_uk":"Сен-Мартен","name_ur":"سینٹ مارٹن","name_fa":"سنت مارتین فرانسه","name_zht":"法屬聖馬丁","FCLASS_ISO":"","FCLASS_US":"","FCLASS_FR":"","FCLASS_RU":"","FCLASS_ES":"","FCLASS_CN":"","FCLASS_TW":"","FCLASS_IN":"","FCLASS_NP":"","FCLASS_PK":"","FCLASS_DE":"","FCLASS_GB":"","FCLASS_BR":"","FCLASS_IL":"","FCLASS_PS":"","FCLASS_SA":"","FCLASS_EG":"","FCLASS_MA":"","FCLASS_PT":"","FCLASS_AR":"","FCLASS_JP":"","FCLASS_KO":"","FCLASS_VN":"","FCLASS_TR":"","FCLASS_ID":"","FCLASS_PL":"","FCLASS_GR":"","FCLASS_IT":"","FCLASS_NL":"","FCLASS_SE":"","FCLASS_BD":"","FCLASS_UA":"","FCLASS_TLC":"","_ziselinTopology":"coast-aligned-to-ne_10m_land","ziselin_archive_type":"Gliedstaat / Provinz"},"match_tokens":["natural-earth:10m:admin1:maf:mf-x00","MF-X00~","MAF-5145","MF.SM","Saint-Martin","St. Martin","Saint Martin","Arrondissement de Saint-Martin-Saint-Barthelemy","Q126125"],"bbox":[-63.14684,18.033391,-63.010732,18.122138],"geometry":{"type":"Polygon","coordinates":[[[-63.017569,18.033391],[-63.085886,18.058511],[-63.107004,18.06212],[-63.107004,18.066962],[-63.115305,18.065375],[-63.130523,18.060248],[-63.134348,18.059475],[-63.14387,18.064683],[-63.14684,18.070299],[-63.143625,18.074164],[-63.113759,18.074652],[-63.096099,18.078803],[-63.083811,18.087958],[-63.079091,18.104193],[-63.070872,18.110012],[-63.052113,18.116848],[-63.031402,18.121894],[-63.017649,18.122138],[-63.017934,18.100531],[-63.011098,18.070746],[-63.010732,18.040839],[-63.017569,18.033391]]]}}]}
