{"schema":"ziselin-boundary-set-country-chunk-v1","id":"natural-earth:10m:admin1:wsb","title":"Natural Earth 10m Admin1 · WSB","provider":"Natural Earth","admin_level":"ADM1","rank":2,"country_iso3":"WSB","generated_from":"admin1-by-country","source":{"label":"Natural Earth","url":"https://www.naturalearthdata.com/","note":"Local EarthMap engine pilot build from Natural Earth 10m Admin-1, coast-aligned to the Natural Earth land layer."},"license":{"id":"public-domain","label":"Public Domain","url":"https://www.naturalearthdata.com/about/terms-of-use/","detail":"Natural Earth public domain map data.","compatibility":{"wikimedia":true,"openstreetmap":true,"attribution_required":false}},"features":[{"type":"Feature","id":"natural-earth:10m:admin1:wsb:99-x17","stable_id":"natural-earth:10m:admin1:wsb:99-x17","version_id":"natural-earth:10m:admin1:wsb:99-x17@natural-earth-10m-reference","name":"Akrotiri","wikidata_id":"","parent_id":"WSB","rank":2,"valid_from":"","valid_to":null,"valid_precision":"unknown","temporal_status":"undated_reference","properties":{"featurecla":"Admin-1 states provinces","scalerank":9,"adm1_code":"WSB-5133","diss_me":5133,"iso_3166_2":"-99-X17~","wikipedia":"","iso_a2":"-1","adm0_sr":3,"name":"Akrotiri","name_alt":"Western Sovereign Base","name_local":"","type":"","type_en":"","code_local":"","code_hasc":"-99.X17~","note":"","hasc_maybe":"","region":"","region_cod":"","provnum_ne":0,"gadm_level":0,"check_me":20,"datarank":10,"abbrev":"","postal":"","area_sqkm":0,"sameascity":-99,"labelrank":20,"name_len":8,"mapcolor9":6,"mapcolor13":3,"fips":"","fips_alt":"","woe_id":-12577965,"woe_label":"","woe_name":"","latitude":34.6003,"longitude":32.9713,"sov_a3":"GB1","adm0_a3":"WSB","adm0_label":3,"admin":"Akrotiri Sovereign Base Area","geonunit":"Akrotiri Sovereign Base Area","gu_a3":"WSB","gn_id":-99,"gn_name":"","gns_id":0,"gns_name":"","gn_level":0,"gn_region":"","gn_a1_code":"-1","region_sub":"","sub_code":"","gns_level":0,"gns_lang":"","gns_adm1":"","gns_region":"","min_label":18,"max_label":18,"min_zoom":18,"wikidataid":"","name_ar":"أكروتيري","name_bn":"আক্রোতিরি","name_de":"Akrotiri","name_en":"Akrotiri","name_es":"Acrotiri","name_fr":"Akrotiri","name_el":"Ακρωτήρι","name_hi":"अक्रोतिरी","name_hu":"Akrotíri","name_id":"Akrotiri","name_it":"Akrotiri","name_ja":"アクロティリ","name_ko":"아크로티리","name_nl":"Akrotiri","name_pl":"Akrotiri","name_pt":"Acrotíri","name_ru":"Акротири","name_sv":"Akrotiri","name_tr":"Akrotiri","name_vi":"Akrotiri","name_zh":"阿克罗蒂里","ne_id":1159315581,"name_he":"אקרוטירי","name_uk":"Акротирі","name_ur":"اکتوٹری","name_fa":"آکروتیری","name_zht":"阿克羅帝利","FCLASS_ISO":"","FCLASS_US":"","FCLASS_FR":"","FCLASS_RU":"","FCLASS_ES":"","FCLASS_CN":"","FCLASS_TW":"","FCLASS_IN":"","FCLASS_NP":"","FCLASS_PK":"","FCLASS_DE":"","FCLASS_GB":"","FCLASS_BR":"","FCLASS_IL":"","FCLASS_PS":"","FCLASS_SA":"","FCLASS_EG":"","FCLASS_MA":"","FCLASS_PT":"","FCLASS_AR":"","FCLASS_JP":"","FCLASS_KO":"","FCLASS_VN":"","FCLASS_TR":"","FCLASS_ID":"","FCLASS_PL":"","FCLASS_GR":"","FCLASS_IT":"","FCLASS_NL":"","FCLASS_SE":"","FCLASS_BD":"","FCLASS_UA":"","FCLASS_TLC":"","_ziselinTopology":"coast-aligned-to-ne_10m_land","ziselin_archive_type":"Gliedstaat / Provinz"},"match_tokens":["natural-earth:10m:admin1:wsb:99-x17","-99-X17~","WSB-5133","-99.X17~","Akrotiri","Western Sovereign Base"],"bbox":[32.760102,34.568549,33.030284,34.700948],"geometry":{"type":"Polygon","coordinates":[[[32.832294,34.700948],[32.835626,34.699838],[32.840809,34.699467],[32.845992,34.699467],[32.853766,34.699467],[32.85969,34.700578],[32.86043,34.687621],[32.865613,34.678735],[32.883432,34.663304],[32.912572,34.656906],[32.917246,34.667136],[32.929752,34.662485],[32.936056,34.657731],[32.942258,34.667136],[32.954712,34.677316],[32.987526,34.673389],[32.9898,34.646103],[32.970266,34.646103],[32.965615,34.651581],[32.95404,34.642951],[32.95559,34.628895],[32.962515,34.625019],[32.969543,34.632047],[32.99073,34.634425],[33.015635,34.634425],[33.009939,34.624905],[33.009125,34.597398],[33.030284,34.574774],[33.030284,34.568549],[32.940929,34.568549],[32.940929,34.574774],[32.944672,34.593695],[32.915863,34.63939],[32.913585,34.656684],[32.857432,34.669013],[32.834321,34.670966],[32.812836,34.668647],[32.760671,34.653225],[32.760102,34.66911],[32.766766,34.676144],[32.778613,34.673182],[32.801128,34.665186],[32.806009,34.68577],[32.819336,34.687621],[32.822668,34.691323],[32.827481,34.696506],[32.832294,34.700948]]]}}]}
