{"schema":"ziselin-boundary-set-country-chunk-v1","id":"natural-earth:10m:admin1:pga","title":"Natural Earth 10m Admin1 · PGA","provider":"Natural Earth","admin_level":"ADM1","rank":2,"country_iso3":"PGA","generated_from":"admin1-by-country","source":{"label":"Natural Earth","url":"https://www.naturalearthdata.com/","note":"Local EarthMap engine pilot build from Natural Earth 10m Admin-1, coast-aligned to the Natural Earth land layer."},"license":{"id":"public-domain","label":"Public Domain","url":"https://www.naturalearthdata.com/about/terms-of-use/","detail":"Natural Earth public domain map data.","compatibility":{"wikimedia":true,"openstreetmap":true,"attribution_required":false}},"features":[{"type":"Feature","id":"natural-earth:10m:admin1:pga:99-x08","stable_id":"natural-earth:10m:admin1:pga:99-x08","version_id":"natural-earth:10m:admin1:pga:99-x08@natural-earth-10m-reference","name":"Spratly-Inseln","wikidata_id":"","parent_id":"PGA","rank":2,"valid_from":"","valid_to":null,"valid_precision":"unknown","temporal_status":"undated_reference","properties":{"featurecla":"Admin-1 states provinces","scalerank":10,"adm1_code":"PGA+00?","diss_me":10137,"iso_3166_2":"-99-X08~","wikipedia":"","iso_a2":"-1","adm0_sr":7,"name":"Spratly Islands","name_alt":"","name_local":"","type":"","type_en":"","code_local":"","code_hasc":"-99.X08~","note":"","hasc_maybe":"","region":"","region_cod":"","provnum_ne":0,"gadm_level":0,"check_me":0,"datarank":10,"abbrev":"","postal":"","area_sqkm":0,"sameascity":-99,"labelrank":20,"name_len":15,"mapcolor9":6,"mapcolor13":0,"fips":"","fips_alt":"","woe_id":23424921,"woe_label":"","woe_name":"Spratly Islands","latitude":8.26522,"longitude":113.342,"sov_a3":"PGA","adm0_a3":"PGA","adm0_label":7,"admin":"Spratly Is.","geonunit":"Spratly Islands","gu_a3":"PGA","gn_id":0,"gn_name":"","gns_id":0,"gns_name":"","gn_level":0,"gn_region":"","gn_a1_code":"-1","region_sub":"","sub_code":"","gns_level":0,"gns_lang":"","gns_adm1":"","gns_region":"","min_label":18,"max_label":18,"min_zoom":18,"wikidataid":"","name_ar":"جزر سبراتلي","name_bn":"স্প্রাটলি দ্বীপপুঞ্জ","name_de":"Spratly-Inseln","name_en":"Spratly Islands","name_es":"Islas Spratly","name_fr":"Îles Spratleys","name_el":"Νήσοι Σπράτλι","name_hi":"स्प्रैटली द्वीप समूह","name_hu":"Spratly-szigetek","name_id":"Kepulauan Spratly","name_it":"Isole Spratly","name_ja":"南沙諸島","name_ko":"스프래틀리 아일랜즈","name_nl":"Spratly-eilanden","name_pl":"Wyspy Spratly","name_pt":"Ilhas Spratly","name_ru":"острова Спратли","name_sv":"Spratlyöarna","name_tr":"Spratly Adaları","name_vi":"Quần đảo Spratly","name_zh":"南沙群岛","ne_id":1159315761,"name_he":"איי ספארטלי","name_uk":"острови Спратлі","name_ur":"سپراٹلے جزائر","name_fa":"جزایر اسپراتلی","name_zht":"南沙群島","FCLASS_ISO":"","FCLASS_US":"","FCLASS_FR":"","FCLASS_RU":"","FCLASS_ES":"","FCLASS_CN":"","FCLASS_TW":"","FCLASS_IN":"","FCLASS_NP":"","FCLASS_PK":"","FCLASS_DE":"","FCLASS_GB":"","FCLASS_BR":"","FCLASS_IL":"","FCLASS_PS":"","FCLASS_SA":"","FCLASS_EG":"","FCLASS_MA":"","FCLASS_PT":"","FCLASS_AR":"","FCLASS_JP":"","FCLASS_KO":"","FCLASS_VN":"","FCLASS_TR":"","FCLASS_ID":"","FCLASS_PL":"","FCLASS_GR":"","FCLASS_IT":"","FCLASS_NL":"","FCLASS_SE":"","FCLASS_BD":"","FCLASS_UA":"","FCLASS_TLC":"","_ziselinTopology":"coast-aligned-to-ne_10m_land","ziselin_archive_type":"Gliedstaat / Provinz"},"match_tokens":["natural-earth:10m:admin1:pga:99-x08","-99-X08~","PGA+00?","-99.X08~","Spratly-Inseln","Spratly Islands"],"bbox":[114.02768,9.679511,115.848806,11.117987],"geometry":{"type":"MultiPolygon","coordinates":[[[[115.367198,10.237494],[115.365977,10.239163],[115.367931,10.239163],[115.367198,10.237494]]],[[[114.37322,9.687649],[114.374685,9.689765],[114.378673,9.692694],[114.381033,9.692206],[114.381847,9.690172],[114.381847,9.689643],[114.38087,9.686225],[114.376475,9.680121],[114.373383,9.679511],[114.370616,9.681383],[114.37086,9.684149],[114.37322,9.687649]]],[[[114.029633,10.011868],[114.02768,10.015123],[114.029307,10.017401],[114.037771,10.021064],[114.04005,10.019477],[114.033946,10.012397],[114.029633,10.011868]]],[[[114.365408,10.175482],[114.360362,10.176256],[114.358653,10.179348],[114.358897,10.183417],[114.363048,10.187079],[114.365977,10.187201],[114.369802,10.183905],[114.371267,10.180487],[114.365408,10.175482]]],[[[114.464203,10.367377],[114.461681,10.372016],[114.46461,10.377997],[114.46697,10.378363],[114.469737,10.376654],[114.470958,10.372301],[114.468435,10.367743],[114.464203,10.367377]]],[[[114.36378,10.367865],[114.358897,10.372545],[114.358165,10.377427],[114.360362,10.378567],[114.366384,10.37401],[114.367849,10.370836],[114.366954,10.368069],[114.36378,10.367865]]],[[[114.454845,10.388332],[114.450206,10.389797],[114.449962,10.394436],[114.451915,10.396633],[114.454926,10.397203],[114.458344,10.395819],[114.459809,10.392727],[114.454845,10.388332]]],[[[115.830577,10.734605],[115.831391,10.734198],[115.833995,10.729438],[115.832693,10.727729],[115.830414,10.727444],[115.824962,10.726752],[115.81837,10.720852],[115.814626,10.723334],[115.812836,10.727688],[115.814626,10.73432],[115.817882,10.735093],[115.828136,10.735989],[115.830577,10.734605]]],[[[115.840343,10.823188],[115.833751,10.824042],[115.830251,10.827704],[115.8296,10.831773],[115.831228,10.833441],[115.841482,10.832709],[115.844737,10.831285],[115.845225,10.831204],[115.848806,10.826402],[115.846934,10.823391],[115.845714,10.822414],[115.840343,10.823188]]],[[[114.278575,11.040432],[114.271658,11.043524],[114.272227,11.045844],[114.278575,11.050035],[114.282725,11.050686],[114.286876,11.046617],[114.283051,11.041002],[114.278575,11.040432]]],[[[115.018403,11.107123],[115.013845,11.107652],[115.009125,11.113227],[115.010102,11.115912],[115.01238,11.115302],[115.020763,11.117987],[115.021658,11.114569],[115.020356,11.10928],[115.018403,11.107123]]]]}}]}
