{"schema":"ziselin-boundary-set-country-chunk-v1","id":"natural-earth:10m:admin1:vir","title":"Natural Earth 10m Admin1 · VIR","provider":"Natural Earth","admin_level":"ADM1","rank":2,"country_iso3":"VIR","generated_from":"admin1-by-country","source":{"label":"Natural Earth","url":"https://www.naturalearthdata.com/","note":"Local EarthMap engine pilot build from Natural Earth 10m Admin-1, coast-aligned to the Natural Earth land layer."},"license":{"id":"public-domain","label":"Public Domain","url":"https://www.naturalearthdata.com/about/terms-of-use/","detail":"Natural Earth public domain map data.","compatibility":{"wikimedia":true,"openstreetmap":true,"attribution_required":false}},"features":[{"type":"Feature","id":"natural-earth:10m:admin1:vir:vi-x01","stable_id":"natural-earth:10m:admin1:vir:vi-x01","version_id":"natural-earth:10m:admin1:vir:vi-x01@natural-earth-10m-reference","name":"Saint Croix","wikidata_id":"","parent_id":"VIR","rank":2,"valid_from":"","valid_to":null,"valid_precision":"unknown","temporal_status":"undated_reference","properties":{"featurecla":"Admin-1 states provinces","scalerank":10,"adm1_code":"VIR-4870","diss_me":4870,"iso_3166_2":"VI-X01~","wikipedia":"http://en.wikipedia.org/wiki/Saint_Croix,_U.S._Virgin_Islands","iso_a2":"VI","adm0_sr":3,"name":"Saint Croix","name_alt":"","name_local":"","type":"","type_en":"","code_local":"","code_hasc":"VI.SC","note":"","hasc_maybe":"","region":"","region_cod":"","provnum_ne":0,"gadm_level":0,"check_me":0,"datarank":10,"abbrev":"","postal":"","area_sqkm":0,"sameascity":-99,"labelrank":20,"name_len":11,"mapcolor9":1,"mapcolor13":1,"fips":"VQ030","fips_alt":"","woe_id":24549907,"woe_label":"Saint Croix Island, VI, US Virgin Islands","woe_name":"Saint Croix Island","latitude":17.735,"longitude":-64.7798,"sov_a3":"US1","adm0_a3":"VIR","adm0_label":8,"admin":"United States Virgin Islands","geonunit":"United States Virgin Islands","gu_a3":"VIR","gn_id":7267902,"gn_name":"Saint Croix Island","gns_id":0,"gns_name":"","gn_level":1,"gn_region":"","gn_a1_code":"VI.010","region_sub":"","sub_code":"","gns_level":0,"gns_lang":"","gns_adm1":"","gns_region":"","min_label":11,"max_label":11,"min_zoom":11,"wikidataid":"","name_ar":"سان كروا","name_bn":"সেন্ট ক্রিক্স","name_de":"Saint Croix","name_en":"Saint Croix","name_es":"Santa Cruz","name_fr":"Sainte-Croix","name_el":"Σεν Κρουά","name_hi":"सेंट क्रोइक्स","name_hu":"Saint Croix","name_id":"Saint Croix","name_it":"Saint Croix","name_ja":"セント・クロイ","name_ko":"생 크루아","name_nl":"Saint Croix","name_pl":"Saint Croix","name_pt":"Santa Cruz","name_ru":"Сент-Круа","name_sv":"Saint Croix","name_tr":"Saint Croix","name_vi":"Saint Croix","name_zh":"圣克洛伊岛","ne_id":1159315967,"name_he":"סנט קרואה","name_uk":"Сан-Круа","name_ur":"سینٹ کروائس","name_fa":"سنت کرویکس","name_zht":"聖克魯斯島","FCLASS_ISO":"","FCLASS_US":"","FCLASS_FR":"","FCLASS_RU":"","FCLASS_ES":"","FCLASS_CN":"","FCLASS_TW":"","FCLASS_IN":"","FCLASS_NP":"","FCLASS_PK":"","FCLASS_DE":"","FCLASS_GB":"","FCLASS_BR":"","FCLASS_IL":"","FCLASS_PS":"","FCLASS_SA":"","FCLASS_EG":"","FCLASS_MA":"","FCLASS_PT":"","FCLASS_AR":"","FCLASS_JP":"","FCLASS_KO":"","FCLASS_VN":"","FCLASS_TR":"","FCLASS_ID":"","FCLASS_PL":"","FCLASS_GR":"","FCLASS_IT":"","FCLASS_NL":"","FCLASS_SE":"","FCLASS_BD":"","FCLASS_UA":"","FCLASS_TLC":"","_ziselinTopology":"coast-aligned-to-ne_10m_land","ziselin_archive_type":"Gliedstaat / Provinz"},"match_tokens":["natural-earth:10m:admin1:vir:vi-x01","VI-X01~","VIR-4870","VI.SC","Saint Croix","Saint Croix Island"],"bbox":[-64.895172,17.682766,-64.559397,17.792629],"geometry":{"type":"Polygon","coordinates":[[[-64.559397,17.751614],[-64.585194,17.748969],[-64.606679,17.742255],[-64.648793,17.7237],[-64.670522,17.717231],[-64.876373,17.689114],[-64.895172,17.682766],[-64.887847,17.699897],[-64.886627,17.714423],[-64.887685,17.755276],[-64.884633,17.76789],[-64.876454,17.775865],[-64.838694,17.764838],[-64.817454,17.774115],[-64.795481,17.787543],[-64.771637,17.792629],[-64.769154,17.790025],[-64.730784,17.765286],[-64.709706,17.758205],[-64.699045,17.752834],[-64.689768,17.744778],[-64.6669,17.762885],[-64.630971,17.770331],[-64.591786,17.768297],[-64.559397,17.75845],[-64.559397,17.751614]]]}},{"type":"Feature","id":"natural-earth:10m:admin1:vir:vi-x03","stable_id":"natural-earth:10m:admin1:vir:vi-x03","version_id":"natural-earth:10m:admin1:vir:vi-x03@natural-earth-10m-reference","name":"Saint John","wikidata_id":"Q548816","parent_id":"VIR","rank":2,"valid_from":"","valid_to":null,"valid_precision":"unknown","temporal_status":"undated_reference","properties":{"featurecla":"Admin-1 states provinces","scalerank":10,"adm1_code":"VIR-4869","diss_me":4869,"iso_3166_2":"VI-X03~","wikipedia":"http://en.wikipedia.org/wiki/Saint_John,_U.S._Virgin_Islands","iso_a2":"VI","adm0_sr":3,"name":"Saint John","name_alt":"","name_local":"","type":"","type_en":"","code_local":"","code_hasc":"VI.SJ","note":"","hasc_maybe":"","region":"","region_cod":"","provnum_ne":0,"gadm_level":0,"check_me":0,"datarank":10,"abbrev":"","postal":"","area_sqkm":0,"sameascity":-99,"labelrank":20,"name_len":10,"mapcolor9":1,"mapcolor13":1,"fips":"020","fips_alt":"","woe_id":24549908,"woe_label":"Saint John Island, VI, US Virgin Islands","woe_name":"Saint John Island","latitude":18.3422,"longitude":-64.7461,"sov_a3":"US1","adm0_a3":"VIR","adm0_label":8,"admin":"United States Virgin Islands","geonunit":"United States Virgin Islands","gu_a3":"VIR","gn_id":7267903,"gn_name":"Saint John Island","gns_id":0,"gns_name":"","gn_level":1,"gn_region":"","gn_a1_code":"VI.020","region_sub":"","sub_code":"","gns_level":0,"gns_lang":"","gns_adm1":"","gns_region":"","min_label":11,"max_label":11,"min_zoom":11,"wikidataid":"Q548816","name_ar":"سان جون","name_bn":"সেন্ট জন","name_de":"Saint John","name_en":"Saint John","name_es":"Parroquia de Saint John","name_fr":"Saint-John","name_el":"Άγιος Ιωάννης","name_hi":"सेंट जॉन पल्ली","name_hu":"Saint John","name_id":"Paroki Saint John","name_it":"Saint John","name_ja":"セント・ジョン教区","name_ko":"세인트존구","name_nl":"Saint John","name_pl":"Saint John","name_pt":"Saint John","name_ru":"Сент-Джон","name_sv":"Saint John","name_tr":"Saint John","name_vi":"Saint John","name_zh":"圣约翰区","ne_id":1159315963,"name_he":"סנט ג'ון","name_uk":"Сан-Джон","name_ur":"سینٹ جان پیرش، اینٹیگوا و باربوڈا","name_fa":"پاریس سنت جان","name_zht":"圣约翰区","FCLASS_ISO":"","FCLASS_US":"","FCLASS_FR":"","FCLASS_RU":"","FCLASS_ES":"","FCLASS_CN":"","FCLASS_TW":"","FCLASS_IN":"","FCLASS_NP":"","FCLASS_PK":"","FCLASS_DE":"","FCLASS_GB":"","FCLASS_BR":"","FCLASS_IL":"","FCLASS_PS":"","FCLASS_SA":"","FCLASS_EG":"","FCLASS_MA":"","FCLASS_PT":"","FCLASS_AR":"","FCLASS_JP":"","FCLASS_KO":"","FCLASS_VN":"","FCLASS_TR":"","FCLASS_ID":"","FCLASS_PL":"","FCLASS_GR":"","FCLASS_IT":"","FCLASS_NL":"","FCLASS_SE":"","FCLASS_BD":"","FCLASS_UA":"","FCLASS_TLC":"","_ziselinTopology":"coast-aligned-to-ne_10m_land","ziselin_archive_type":"Gliedstaat / Provinz"},"match_tokens":["natural-earth:10m:admin1:vir:vi-x03","VI-X03~","VIR-4869","VI.SJ","Saint John","Saint John Island","Q548816"],"bbox":[-64.801285,18.30331,-64.66039,18.37359],"geometry":{"type":"Polygon","coordinates":[[[-64.700994,18.342976],[-64.708161,18.340145],[-64.697423,18.32654],[-64.704005,18.30331],[-64.73623,18.319753],[-64.786367,18.315222],[-64.801285,18.328253],[-64.786365,18.349772],[-64.769649,18.356589],[-64.751736,18.361689],[-64.755913,18.369057],[-64.746955,18.37359],[-64.713519,18.365083],[-64.697397,18.362244],[-64.682472,18.356003],[-64.664561,18.346927],[-64.66039,18.336723],[-64.67413,18.334463],[-64.700994,18.342976]]]}},{"type":"Feature","id":"natural-earth:10m:admin1:vir:vi-x02","stable_id":"natural-earth:10m:admin1:vir:vi-x02","version_id":"natural-earth:10m:admin1:vir:vi-x02@natural-earth-10m-reference","name":"Saint Thomas","wikidata_id":"","parent_id":"VIR","rank":2,"valid_from":"","valid_to":null,"valid_precision":"unknown","temporal_status":"undated_reference","properties":{"featurecla":"Admin-1 states provinces","scalerank":10,"adm1_code":"VIR-4868","diss_me":4868,"iso_3166_2":"VI-X02~","wikipedia":"http://en.wikipedia.org/wiki/Saint_Thomas,_U.S._Virgin_Islands","iso_a2":"VI","adm0_sr":3,"name":"Saint Thomas","name_alt":"","name_local":"","type":"","type_en":"","code_local":"","code_hasc":"VI.ST","note":"","hasc_maybe":"","region":"","region_cod":"","provnum_ne":0,"gadm_level":0,"check_me":0,"datarank":10,"abbrev":"","postal":"","area_sqkm":0,"sameascity":-99,"labelrank":20,"name_len":12,"mapcolor9":1,"mapcolor13":1,"fips":"VQ010","fips_alt":"","woe_id":24549909,"woe_label":"Saint Thomas Island, VI, US Virgin Islands","woe_name":"Saint Thomas Island","latitude":18.3543,"longitude":-64.9263,"sov_a3":"US1","adm0_a3":"VIR","adm0_label":8,"admin":"United States Virgin Islands","geonunit":"United States Virgin Islands","gu_a3":"VIR","gn_id":7267904,"gn_name":"Saint Thomas Island","gns_id":0,"gns_name":"","gn_level":1,"gn_region":"","gn_a1_code":"VI.030","region_sub":"","sub_code":"","gns_level":0,"gns_lang":"","gns_adm1":"","gns_region":"","min_label":11,"max_label":11,"min_zoom":11,"wikidataid":"","name_ar":"سان توما","name_bn":"সেন্ট টমাস","name_de":"Saint Thomas","name_en":"Saint Thomas","name_es":"Santo Tomás","name_fr":"Saint Thomas","name_el":"Σέιντ Τόμας","name_hi":"सेंट थॉमस","name_hu":"Saint Thomas","name_id":"Saint Thomas","name_it":"Saint Thomas","name_ja":"セント・トーマス","name_ko":"세인트 토마스","name_nl":"Saint Thomas","name_pl":"Saint Thomas","name_pt":"Saint Thomas","name_ru":"Сент-Томас","name_sv":"Saint Thomas","name_tr":"Saint Thomas","name_vi":"Saint Thomas","name_zh":"圣托马斯岛","ne_id":1159315559,"name_he":"סנט תומאס","name_uk":"Сент-Томас","name_ur":"سینٹ تھومس","name_fa":"سنت توماس","name_zht":"聖湯馬斯","FCLASS_ISO":"","FCLASS_US":"","FCLASS_FR":"","FCLASS_RU":"","FCLASS_ES":"","FCLASS_CN":"","FCLASS_TW":"","FCLASS_IN":"","FCLASS_NP":"","FCLASS_PK":"","FCLASS_DE":"","FCLASS_GB":"","FCLASS_BR":"","FCLASS_IL":"","FCLASS_PS":"","FCLASS_SA":"","FCLASS_EG":"","FCLASS_MA":"","FCLASS_PT":"","FCLASS_AR":"","FCLASS_JP":"","FCLASS_KO":"","FCLASS_VN":"","FCLASS_TR":"","FCLASS_ID":"","FCLASS_PL":"","FCLASS_GR":"","FCLASS_IT":"","FCLASS_NL":"","FCLASS_SE":"","FCLASS_BD":"","FCLASS_UA":"","FCLASS_TLC":"","_ziselinTopology":"coast-aligned-to-ne_10m_land","ziselin_archive_type":"Gliedstaat / Provinz"},"match_tokens":["natural-earth:10m:admin1:vir:vi-x02","VI-X02~","VIR-4868","VI.ST","Saint Thomas","Saint Thomas Island"],"bbox":[-65.041493,18.304441,-64.84008,18.386599],"geometry":{"type":"Polygon","coordinates":[[[-64.871637,18.314623],[-64.878839,18.304441],[-64.910498,18.315758],[-64.921859,18.322555],[-64.930834,18.33955],[-64.935023,18.330486],[-64.944586,18.336714],[-64.966095,18.332735],[-64.981643,18.335558],[-64.993621,18.348024],[-65.025309,18.338926],[-65.041493,18.353658],[-65.011871,18.368598],[-64.986643,18.374823],[-64.950002,18.373554],[-64.93498,18.36332],[-64.926019,18.366154],[-64.942251,18.378099],[-64.950028,18.386599],[-64.928505,18.38037],[-64.891436,18.359968],[-64.854984,18.340129],[-64.84008,18.317489],[-64.851408,18.315782],[-64.860312,18.318591],[-64.871637,18.314623]]]}}]}
