{"schema":"ziselin-boundary-set-country-chunk-v1","id":"natural-earth:10m:admin1:kab","title":"Natural Earth 10m Admin1 · KAB","provider":"Natural Earth","admin_level":"ADM1","rank":2,"country_iso3":"KAB","generated_from":"admin1-by-country","source":{"label":"Natural Earth","url":"https://www.naturalearthdata.com/","note":"Local EarthMap engine pilot build from Natural Earth 10m Admin-1, coast-aligned to the Natural Earth land layer."},"license":{"id":"public-domain","label":"Public Domain","url":"https://www.naturalearthdata.com/about/terms-of-use/","detail":"Natural Earth public domain map data.","compatibility":{"wikimedia":true,"openstreetmap":true,"attribution_required":false}},"features":[{"type":"Feature","id":"natural-earth:10m:admin1:kab:99-x05","stable_id":"natural-earth:10m:admin1:kab:99-x05","version_id":"natural-earth:10m:admin1:kab:99-x05@natural-earth-10m-reference","name":"Baikonur","wikidata_id":"Q165413","parent_id":"KAB","rank":2,"valid_from":"","valid_to":null,"valid_precision":"unknown","temporal_status":"undated_reference","properties":{"featurecla":"Admin-1 states provinces","scalerank":4,"adm1_code":"KAB+00?","diss_me":20003,"iso_3166_2":"-99-X05~","wikipedia":"","iso_a2":"-1","adm0_sr":1,"name":"Baykonur lease in Qyzylorda","name_alt":"","name_local":"","type":"","type_en":"","code_local":"","code_hasc":"-99.X05~","note":"","hasc_maybe":"","region":"","region_cod":"","provnum_ne":0,"gadm_level":0,"check_me":0,"datarank":10,"abbrev":"","postal":"QO","area_sqkm":0,"sameascity":6,"labelrank":6,"name_len":27,"mapcolor9":6,"mapcolor13":1,"fips":"","fips_alt":"","woe_id":-2345990,"woe_label":"","woe_name":"","latitude":45.9632,"longitude":63.3524,"sov_a3":"KA1","adm0_a3":"KAB","adm0_label":5,"admin":"Baykonur Cosmodrome","geonunit":"Baykonur Cosmodrome","gu_a3":"KAB","gn_id":1538316,"gn_name":"Bayqongyr Qalasy","gns_id":414003,"gns_name":"Baykonyr, Gorod","gn_level":1,"gn_region":"","gn_a1_code":"-108","region_sub":"","sub_code":"","gns_level":1,"gns_lang":"rus","gns_adm1":"KZ08","gns_region":"","min_label":18,"max_label":18,"min_zoom":18,"wikidataid":"Q165413","name_ar":"بايكونور","name_bn":"বাইকুনোর","name_de":"Baikonur","name_en":"Baikonur","name_es":"Baikonur","name_fr":"Baïkonour","name_el":"Μπαϊκονούρ","name_hi":"बायकोनूर","name_hu":"Bajkonur","name_id":"Baykonur","name_it":"Bayqoñyr","name_ja":"バイコヌール","name_ko":"바이코누르","name_nl":"Bajkonoer","name_pl":"Bajkonur","name_pt":"Baikonur","name_ru":"Байконур","name_sv":"Bajkonur","name_tr":"Baykonur","name_vi":"Baikonur","name_zh":"拜科努尔","ne_id":1159308537,"name_he":"בייקונור","name_uk":"Байконир","name_ur":"بایکونور","name_fa":"بایقونور، قزاقستان","name_zht":"拜科努爾","FCLASS_ISO":"","FCLASS_US":"","FCLASS_FR":"","FCLASS_RU":"","FCLASS_ES":"","FCLASS_CN":"","FCLASS_TW":"","FCLASS_IN":"","FCLASS_NP":"","FCLASS_PK":"","FCLASS_DE":"","FCLASS_GB":"","FCLASS_BR":"","FCLASS_IL":"","FCLASS_PS":"","FCLASS_SA":"","FCLASS_EG":"","FCLASS_MA":"","FCLASS_PT":"","FCLASS_AR":"","FCLASS_JP":"","FCLASS_KO":"","FCLASS_VN":"","FCLASS_TR":"","FCLASS_ID":"","FCLASS_PL":"","FCLASS_GR":"","FCLASS_IT":"","FCLASS_NL":"","FCLASS_SE":"","FCLASS_BD":"","FCLASS_UA":"","FCLASS_TLC":"","_ziselinTopology":"coast-aligned-to-ne_10m_land","ziselin_archive_type":"Gliedstaat / Provinz"},"match_tokens":["natural-earth:10m:admin1:kab:99-x05","-99-X05~","KAB+00?","-99.X05~","QO","Baikonur","Baykonur lease in Qyzylorda","Bayqongyr Qalasy","Baykonyr, Gorod","Q165413"],"bbox":[62.800642,45.565824,63.967134,46.390839],"geometry":{"type":"Polygon","coordinates":[[[63.383914,46.390839],[63.443548,46.388694],[63.501477,46.382441],[63.557391,46.372261],[63.610928,46.358412],[63.661881,46.341048],[63.70994,46.320378],[63.754899,46.296658],[63.796343,46.270019],[63.833964,46.240719],[63.867553,46.208964],[63.896699,46.17496],[63.921297,46.13889],[63.940934,46.100986],[63.9553,46.061427],[63.964085,46.0205],[63.967134,45.978332],[63.964085,45.936164],[63.9553,45.895184],[63.940934,45.855703],[63.921297,45.817773],[63.896699,45.781703],[63.867553,45.7477],[63.833964,45.715945],[63.796343,45.686644],[63.754899,45.660005],[63.70994,45.636285],[63.661881,45.615615],[63.610928,45.598251],[63.557391,45.584376],[63.501477,45.574222],[63.443548,45.567969],[63.383914,45.565824],[63.324279,45.567969],[63.26635,45.574222],[63.210488,45.584376],[63.156899,45.598251],[63.105946,45.615615],[63.057835,45.636285],[63.012929,45.660005],[62.971484,45.686644],[62.933864,45.715945],[62.900274,45.7477],[62.871025,45.781703],[62.846479,45.817773],[62.826893,45.855703],[62.812527,45.895184],[62.803639,45.936164],[62.800642,45.978332],[62.803639,46.0205],[62.812527,46.061427],[62.826893,46.100986],[62.846479,46.13889],[62.871025,46.17496],[62.900274,46.208964],[62.933864,46.240719],[62.971484,46.270019],[63.012929,46.296658],[63.057835,46.320378],[63.105946,46.341048],[63.156899,46.358412],[63.210488,46.372261],[63.26635,46.382441],[63.324279,46.388694],[63.383914,46.390839]]]}}]}
