{"schema":"ziselin-boundary-set-country-chunk-v1","id":"natural-earth:10m:admin1:sxm","title":"Natural Earth 10m Admin1 · SXM","provider":"Natural Earth","admin_level":"ADM1","rank":2,"country_iso3":"SXM","generated_from":"admin1-by-country","source":{"label":"Natural Earth","url":"https://www.naturalearthdata.com/","note":"Local EarthMap engine pilot build from Natural Earth 10m Admin-1, coast-aligned to the Natural Earth land layer."},"license":{"id":"public-domain","label":"Public Domain","url":"https://www.naturalearthdata.com/about/terms-of-use/","detail":"Natural Earth public domain map data.","compatibility":{"wikimedia":true,"openstreetmap":true,"attribution_required":false}},"features":[{"type":"Feature","id":"natural-earth:10m:admin1:sxm:nl-sx","stable_id":"natural-earth:10m:admin1:sxm:nl-sx","version_id":"natural-earth:10m:admin1:sxm:nl-sx@natural-earth-10m-reference","name":"Sint Maarten","wikidata_id":"Q26273","parent_id":"SXM","rank":2,"valid_from":"","valid_to":null,"valid_precision":"unknown","temporal_status":"undated_reference","properties":{"featurecla":"Admin-1 states provinces","scalerank":10,"adm1_code":"SXM-5146","diss_me":5146,"iso_3166_2":"NL-SX","wikipedia":"","iso_a2":"SX","adm0_sr":3,"name":"Sint Maarten","name_alt":"","name_local":"","type":"","type_en":"","code_local":"","code_hasc":"SX.SM","note":"","hasc_maybe":"","region":"","region_cod":"","provnum_ne":0,"gadm_level":0,"check_me":0,"datarank":10,"abbrev":"","postal":"","area_sqkm":0,"sameascity":-99,"labelrank":20,"name_len":12,"mapcolor9":2,"mapcolor13":0,"fips":"","fips_alt":"","woe_id":23425000,"woe_label":"","woe_name":"St. Maarten","latitude":18.0401,"longitude":-63.0677,"sov_a3":"NL1","adm0_a3":"SXM","adm0_label":8,"admin":"Sint Maarten","geonunit":"Sint Maarten","gu_a3":"SXM","gn_id":-99,"gn_name":"","gns_id":0,"gns_name":"","gn_level":0,"gn_region":"","gn_a1_code":"SX.","region_sub":"","sub_code":"","gns_level":0,"gns_lang":"","gns_adm1":"","gns_region":"","min_label":11,"max_label":11,"min_zoom":11,"wikidataid":"Q26273","name_ar":"سينت مارتن","name_bn":"সিন্ট মার্টেন","name_de":"Sint Maarten","name_en":"Sint Maarten","name_es":"San Martín","name_fr":"Saint-Martin","name_el":"Άγιος Μαρτίνος","name_hi":"सिंट मार्टेन","name_hu":"Sint Maarten","name_id":"Sint Maarten","name_it":"Sint Maarten","name_ja":"シント・マールテン","name_ko":"신트마르턴","name_nl":"Sint Maarten","name_pl":"Sint Maarten","name_pt":"São Martinho","name_ru":"Синт-Мартен","name_sv":"Sint Maarten","name_tr":"Sint Maarten","name_vi":"Sint Maarten","name_zh":"荷属圣马丁","ne_id":1159315549,"name_he":"סנט מארטן","name_uk":"Сінт-Мартен","name_ur":"سنٹ مارٹن","name_fa":"سینت مارتن","name_zht":"荷屬聖馬丁","FCLASS_ISO":"","FCLASS_US":"","FCLASS_FR":"","FCLASS_RU":"","FCLASS_ES":"","FCLASS_CN":"","FCLASS_TW":"","FCLASS_IN":"","FCLASS_NP":"","FCLASS_PK":"","FCLASS_DE":"","FCLASS_GB":"","FCLASS_BR":"","FCLASS_IL":"","FCLASS_PS":"","FCLASS_SA":"","FCLASS_EG":"","FCLASS_MA":"","FCLASS_PT":"","FCLASS_AR":"","FCLASS_JP":"","FCLASS_KO":"","FCLASS_VN":"","FCLASS_TR":"","FCLASS_ID":"","FCLASS_PL":"","FCLASS_GR":"","FCLASS_IT":"","FCLASS_NL":"","FCLASS_SE":"","FCLASS_BD":"","FCLASS_UA":"","FCLASS_TLC":"","_ziselinTopology":"coast-aligned-to-ne_10m_land","ziselin_archive_type":"Gliedstaat / Provinz"},"match_tokens":["natural-earth:10m:admin1:sxm:nl-sx","NL-SX","SXM-5146","SX.SM","Sint Maarten","St. Maarten","Q26273"],"bbox":[-63.118886,18.01911,-63.017569,18.06212],"geometry":{"type":"Polygon","coordinates":[[[-63.107004,18.06212],[-63.085886,18.058511],[-63.017569,18.033391],[-63.030629,18.01911],[-63.097646,18.035956],[-63.112172,18.043036],[-63.118886,18.0515],[-63.107004,18.059475],[-63.107004,18.06212]]]}}]}
