{"schema":"ziselin-boundary-set-country-chunk-v1","id":"natural-earth:10m:admin1:jey","title":"Natural Earth 10m Admin1 · JEY","provider":"Natural Earth","admin_level":"ADM1","rank":2,"country_iso3":"JEY","generated_from":"admin1-by-country","source":{"label":"Natural Earth","url":"https://www.naturalearthdata.com/","note":"Local EarthMap engine pilot build from Natural Earth 10m Admin-1, coast-aligned to the Natural Earth land layer."},"license":{"id":"public-domain","label":"Public Domain","url":"https://www.naturalearthdata.com/about/terms-of-use/","detail":"Natural Earth public domain map data.","compatibility":{"wikimedia":true,"openstreetmap":true,"attribution_required":false}},"features":[{"type":"Feature","id":"natural-earth:10m:admin1:jey:je-x01","stable_id":"natural-earth:10m:admin1:jey:je-x01","version_id":"natural-earth:10m:admin1:jey:je-x01@natural-earth-10m-reference","name":"Jersey","wikidata_id":"Q785","parent_id":"JEY","rank":2,"valid_from":"","valid_to":null,"valid_precision":"unknown","temporal_status":"undated_reference","properties":{"featurecla":"Admin-1 states provinces","scalerank":10,"adm1_code":"JEY+00?","diss_me":10090,"iso_3166_2":"JE-X01~","wikipedia":"","iso_a2":"JE","adm0_sr":4,"name":"Jersey","name_alt":"","name_local":"","type":"","type_en":"","code_local":"","code_hasc":"JE.X00~","note":"","hasc_maybe":"","region":"","region_cod":"","provnum_ne":0,"gadm_level":0,"check_me":20,"datarank":10,"abbrev":"","postal":"","area_sqkm":0,"sameascity":-99,"labelrank":20,"name_len":6,"mapcolor9":6,"mapcolor13":3,"fips":"","fips_alt":"","woe_id":23424857,"woe_label":"","woe_name":"Jersey","latitude":49.2298,"longitude":-2.12454,"sov_a3":"GB1","adm0_a3":"JEY","adm0_label":5,"admin":"Jersey","geonunit":"Jersey","gu_a3":"JEY","gn_id":0,"gn_name":"","gns_id":0,"gns_name":"","gn_level":0,"gn_region":"","gn_a1_code":"JE.","region_sub":"","sub_code":"","gns_level":0,"gns_lang":"","gns_adm1":"","gns_region":"","min_label":18,"max_label":18,"min_zoom":18,"wikidataid":"Q785","name_ar":"جيرزي","name_bn":"জার্সি","name_de":"Jersey","name_en":"Jersey","name_es":"Jersey","name_fr":"Jersey","name_el":"Τζέρσεϊ","name_hi":"जर्सी","name_hu":"Jersey","name_id":"Jersey","name_it":"baliato di Jersey","name_ja":"ジャージー","name_ko":"저지섬","name_nl":"Jersey","name_pl":"Jersey","name_pt":"Jersey","name_ru":"Джерси","name_sv":"Jersey","name_tr":"Jersey","name_vi":"Jersey","name_zh":"泽西","ne_id":1159315593,"name_he":"ג'רזי","name_uk":"Джерсі","name_ur":"جرزی","name_fa":"جرزی","name_zht":"澤西","FCLASS_ISO":"","FCLASS_US":"","FCLASS_FR":"","FCLASS_RU":"","FCLASS_ES":"","FCLASS_CN":"","FCLASS_TW":"","FCLASS_IN":"","FCLASS_NP":"","FCLASS_PK":"","FCLASS_DE":"","FCLASS_GB":"","FCLASS_BR":"","FCLASS_IL":"","FCLASS_PS":"","FCLASS_SA":"","FCLASS_EG":"","FCLASS_MA":"","FCLASS_PT":"","FCLASS_AR":"","FCLASS_JP":"","FCLASS_KO":"","FCLASS_VN":"","FCLASS_TR":"","FCLASS_ID":"","FCLASS_PL":"","FCLASS_GR":"","FCLASS_IT":"","FCLASS_NL":"","FCLASS_SE":"","FCLASS_BD":"","FCLASS_UA":"","FCLASS_TLC":"","_ziselinTopology":"coast-aligned-to-ne_10m_land","ziselin_archive_type":"Gliedstaat / Provinz"},"match_tokens":["natural-earth:10m:admin1:jey:je-x01","JE-X01~","JEY+00?","JE.X00~","Jersey","Q785"],"bbox":[-2.242014,49.171332,-2.00829,49.267035],"geometry":{"type":"Polygon","coordinates":[[[-2.082672,49.26024],[-2.06786,49.250678],[-2.02066,49.235256],[-2.021962,49.225491],[-2.017323,49.221381],[-2.011871,49.215277],[-2.00829,49.21247],[-2.016998,49.207221],[-2.020985,49.200751],[-2.022043,49.19245],[-2.021962,49.181383],[-2.024526,49.171332],[-2.031158,49.171454],[-2.040028,49.175727],[-2.049224,49.17829],[-2.079986,49.178697],[-2.096995,49.183661],[-2.120229,49.199164],[-2.128896,49.20307],[-2.137929,49.205634],[-2.144846,49.205634],[-2.152943,49.199937],[-2.160634,49.190741],[-2.168691,49.17829],[-2.177154,49.180162],[-2.189687,49.189114],[-2.200103,49.191962],[-2.202952,49.190416],[-2.223378,49.184719],[-2.233632,49.184516],[-2.226471,49.206],[-2.233225,49.228502],[-2.242014,49.247952],[-2.241119,49.26024],[-2.22936,49.263007],[-2.215199,49.26024],[-2.196278,49.253404],[-2.182729,49.254055],[-2.172353,49.256252],[-2.162709,49.260403],[-2.151682,49.267035],[-2.143788,49.261868],[-2.121978,49.258287],[-2.110666,49.253404],[-2.103871,49.258205],[-2.097564,49.25967],[-2.082672,49.26024]]]}}]}
