{"schema":"ziselin-boundary-set-country-chunk-v1","id":"natural-earth:10m:admin1:ggy","title":"Natural Earth 10m Admin1 · GGY","provider":"Natural Earth","admin_level":"ADM1","rank":2,"country_iso3":"GGY","generated_from":"admin1-by-country","source":{"label":"Natural Earth","url":"https://www.naturalearthdata.com/","note":"Local EarthMap engine pilot build from Natural Earth 10m Admin-1, coast-aligned to the Natural Earth land layer."},"license":{"id":"public-domain","label":"Public Domain","url":"https://www.naturalearthdata.com/about/terms-of-use/","detail":"Natural Earth public domain map data.","compatibility":{"wikimedia":true,"openstreetmap":true,"attribution_required":false}},"features":[{"type":"Feature","id":"natural-earth:10m:admin1:ggy:gg-x01","stable_id":"natural-earth:10m:admin1:ggy:gg-x01","version_id":"natural-earth:10m:admin1:ggy:gg-x01@natural-earth-10m-reference","name":"Sark","wikidata_id":"","parent_id":"GGY","rank":2,"valid_from":"","valid_to":null,"valid_precision":"unknown","temporal_status":"undated_reference","properties":{"featurecla":"Admin-1 states provinces","scalerank":10,"adm1_code":"GGY+00?","diss_me":10066,"iso_3166_2":"GG-X01~","wikipedia":"","iso_a2":"GG","adm0_sr":5,"name":"Sark","name_alt":"","name_local":"","type":"","type_en":"","code_local":"","code_hasc":"GG.SK","note":"","hasc_maybe":"","region":"","region_cod":"","provnum_ne":0,"gadm_level":0,"check_me":20,"datarank":10,"abbrev":"","postal":"","area_sqkm":0,"sameascity":-99,"labelrank":20,"name_len":4,"mapcolor9":6,"mapcolor13":3,"fips":"","fips_alt":"","woe_id":23700853,"woe_label":"","woe_name":"Sark","latitude":49.4309,"longitude":-2.36628,"sov_a3":"GB1","adm0_a3":"GGY","adm0_label":5,"admin":"Guernsey","geonunit":"Guernsey","gu_a3":"GGY","gn_id":0,"gn_name":"","gns_id":0,"gns_name":"","gn_level":0,"gn_region":"","gn_a1_code":"GG.","region_sub":"","sub_code":"","gns_level":0,"gns_lang":"","gns_adm1":"","gns_region":"","min_label":18,"max_label":18,"min_zoom":18,"wikidataid":"","name_ar":"سارك","name_bn":"সার্ক","name_de":"Sark","name_en":"Sark","name_es":"Sark","name_fr":"Sercq","name_el":"Σαρκ","name_hi":"सार्क","name_hu":"Sark","name_id":"Sark","name_it":"Sark","name_ja":"サーク","name_ko":"사크","name_nl":"Sark","name_pl":"Sark","name_pt":"Sark","name_ru":"Сарк","name_sv":"Sark","name_tr":"Sark","name_vi":"Sark","name_zh":"萨克岛","ne_id":1159315595,"name_he":"סארק","name_uk":"Сарк","name_ur":"سارک","name_fa":"سارک","name_zht":"薩克島","FCLASS_ISO":"","FCLASS_US":"","FCLASS_FR":"","FCLASS_RU":"","FCLASS_ES":"","FCLASS_CN":"","FCLASS_TW":"","FCLASS_IN":"","FCLASS_NP":"","FCLASS_PK":"","FCLASS_DE":"","FCLASS_GB":"","FCLASS_BR":"","FCLASS_IL":"","FCLASS_PS":"","FCLASS_SA":"","FCLASS_EG":"","FCLASS_MA":"","FCLASS_PT":"","FCLASS_AR":"","FCLASS_JP":"","FCLASS_KO":"","FCLASS_VN":"","FCLASS_TR":"","FCLASS_ID":"","FCLASS_PL":"","FCLASS_GR":"","FCLASS_IT":"","FCLASS_NL":"","FCLASS_SE":"","FCLASS_BD":"","FCLASS_UA":"","FCLASS_TLC":"","_ziselinTopology":"coast-aligned-to-ne_10m_land","ziselin_archive_type":"Gliedstaat / Provinz"},"match_tokens":["natural-earth:10m:admin1:ggy:gg-x01","GG-X01~","GGY+00?","GG.SK","Sark"],"bbox":[-2.673451,49.411566,-2.170318,49.731391],"geometry":{"type":"MultiPolygon","coordinates":[[[[-2.58023,49.493598],[-2.55956,49.499335],[-2.538197,49.509833],[-2.518219,49.51553],[-2.501698,49.506659],[-2.505767,49.497992],[-2.522125,49.479967],[-2.526723,49.458482],[-2.532948,49.442857],[-2.532786,49.43891],[-2.534088,49.436225],[-2.541982,49.430894],[-2.552073,49.426703],[-2.558705,49.427191],[-2.564849,49.429511],[-2.57311,49.430894],[-2.669342,49.430894],[-2.673451,49.433498],[-2.670766,49.438788],[-2.662953,49.443793],[-2.651845,49.445217],[-2.656565,49.459418],[-2.650258,49.46369],[-2.637929,49.463853],[-2.624623,49.465725],[-2.58023,49.493598]]],[[[-2.363759,49.446845],[-2.356353,49.440375],[-2.3544,49.427802],[-2.364654,49.417873],[-2.373525,49.411566],[-2.378082,49.412746],[-2.374827,49.419176],[-2.373118,49.424262],[-2.375885,49.430406],[-2.375478,49.435452],[-2.372629,49.438056],[-2.369862,49.442084],[-2.366119,49.445746],[-2.363759,49.446845]]],[[[-2.174469,49.731391],[-2.170318,49.728746],[-2.170318,49.723212],[-2.187896,49.710639],[-2.200836,49.705715],[-2.216868,49.70303],[-2.226226,49.707831],[-2.218495,49.718695],[-2.204701,49.724107],[-2.194814,49.724799],[-2.178619,49.730902],[-2.174469,49.731391]]]]}}]}
