{"schema":"ziselin-boundary-set-country-chunk-v1","id":"natural-earth:10m:admin1:kas","title":"Natural Earth 10m Admin1 · KAS","provider":"Natural Earth","admin_level":"ADM1","rank":2,"country_iso3":"KAS","generated_from":"admin1-by-country","source":{"label":"Natural Earth","url":"https://www.naturalearthdata.com/","note":"Local EarthMap engine pilot build from Natural Earth 10m Admin-1, coast-aligned to the Natural Earth land layer."},"license":{"id":"public-domain","label":"Public Domain","url":"https://www.naturalearthdata.com/about/terms-of-use/","detail":"Natural Earth public domain map data.","compatibility":{"wikimedia":true,"openstreetmap":true,"attribution_required":false}},"features":[{"type":"Feature","id":"natural-earth:10m:admin1:kas:99-x06","stable_id":"natural-earth:10m:admin1:kas:99-x06","version_id":"natural-earth:10m:admin1:kas:99-x06@natural-earth-10m-reference","name":"Kaschmir","wikidata_id":"","parent_id":"KAS","rank":2,"valid_from":"","valid_to":null,"valid_precision":"unknown","temporal_status":"undated_reference","properties":{"featurecla":"Admin-1 states provinces","scalerank":10,"adm1_code":"KAS+00?","diss_me":10093,"iso_3166_2":"-99-X06~","wikipedia":"","iso_a2":"-1","adm0_sr":1,"name":"Kashmir","name_alt":"","name_local":"","type":"","type_en":"","code_local":"","code_hasc":"-99.X06~","note":"","hasc_maybe":"","region":"","region_cod":"","provnum_ne":0,"gadm_level":0,"check_me":0,"datarank":10,"abbrev":"","postal":"","area_sqkm":0,"sameascity":-99,"labelrank":20,"name_len":7,"mapcolor9":6,"mapcolor13":0,"fips":"","fips_alt":"","woe_id":-2345746,"woe_label":"","woe_name":"","latitude":35.3792,"longitude":77.2889,"sov_a3":"KAS","adm0_a3":"KAS","adm0_label":5,"admin":"Siachen Glacier","geonunit":"Siachen Glacier","gu_a3":"KAS","gn_id":0,"gn_name":"","gns_id":0,"gns_name":"","gn_level":0,"gn_region":"","gn_a1_code":"-1","region_sub":"","sub_code":"","gns_level":0,"gns_lang":"","gns_adm1":"","gns_region":"","min_label":18,"max_label":18,"min_zoom":18,"wikidataid":"","name_ar":"كشمير","name_bn":"কাশ্মীর","name_de":"Kaschmir","name_en":"Kashmir","name_es":"Cachemira","name_fr":"Kashmir","name_el":"Κασμίρ","name_hi":"कश्मीर","name_hu":"Kasmír","name_id":"Kashmir","name_it":"Kashmir","name_ja":"カシミール","name_ko":"카슈미르","name_nl":"Kashmir","name_pl":"Kaszmir","name_pt":"Caxemira","name_ru":"Кашмир","name_sv":"Kashmir","name_tr":"Kashmir","name_vi":"Kashmir","name_zh":"克什米尔","ne_id":1159315669,"name_he":"קשמיר","name_uk":"Кашмір","name_ur":"کشمیر","name_fa":"کشمیر","name_zht":"喀什米爾","FCLASS_ISO":"","FCLASS_US":"","FCLASS_FR":"","FCLASS_RU":"","FCLASS_ES":"","FCLASS_CN":"Unrecognized","FCLASS_TW":"Unrecognized","FCLASS_IN":"Unrecognized","FCLASS_NP":"Unrecognized","FCLASS_PK":"Unrecognized","FCLASS_DE":"","FCLASS_GB":"","FCLASS_BR":"","FCLASS_IL":"","FCLASS_PS":"","FCLASS_SA":"","FCLASS_EG":"","FCLASS_MA":"","FCLASS_PT":"","FCLASS_AR":"","FCLASS_JP":"","FCLASS_KO":"","FCLASS_VN":"","FCLASS_TR":"","FCLASS_ID":"","FCLASS_PL":"","FCLASS_GR":"","FCLASS_IT":"","FCLASS_NL":"","FCLASS_SE":"","FCLASS_BD":"","FCLASS_UA":"","FCLASS_TLC":"","_ziselinTopology":"coast-aligned-to-ne_10m_land","ziselin_archive_type":"Gliedstaat / Provinz"},"match_tokens":["natural-earth:10m:admin1:kas:99-x06","-99-X06~","KAS+00?","-99.X06~","Kaschmir","Kashmir"],"bbox":[76.777351,35.110442,77.800346,35.647799],"geometry":{"type":"Polygon","coordinates":[[[77.048971,35.110442],[76.913161,35.378277],[76.777351,35.646112],[76.782837,35.645732],[76.824592,35.647799],[76.842989,35.641288],[76.856941,35.628576],[76.880506,35.60067],[76.896422,35.589612],[76.915026,35.583152],[76.9358,35.579638],[76.976417,35.578656],[77.017552,35.584599],[77.039049,35.585013],[77.058169,35.580103],[77.071089,35.571008],[77.092276,35.547805],[77.105298,35.537987],[77.141265,35.525378],[77.177542,35.523156],[77.250819,35.530701],[77.281102,35.528013],[77.305389,35.517833],[77.352002,35.486052],[77.383731,35.471996],[77.412773,35.469412],[77.476438,35.477164],[77.512199,35.478456],[77.519608,35.477439],[77.660613,35.458095],[77.689655,35.462694],[77.716734,35.475407],[77.74743,35.49432],[77.760349,35.498093],[77.773578,35.498971],[77.800346,35.495406],[77.424659,35.302924],[77.048971,35.110442]]]}}]}
