{"schema":"ziselin-boundary-set-country-chunk-v1","id":"natural-earth:10m:admin1:pcn","title":"Natural Earth 10m Admin1 · PCN","provider":"Natural Earth","admin_level":"ADM1","rank":2,"country_iso3":"PCN","generated_from":"admin1-by-country","source":{"label":"Natural Earth","url":"https://www.naturalearthdata.com/","note":"Local EarthMap engine pilot build from Natural Earth 10m Admin-1, coast-aligned to the Natural Earth land layer."},"license":{"id":"public-domain","label":"Public Domain","url":"https://www.naturalearthdata.com/about/terms-of-use/","detail":"Natural Earth public domain map data.","compatibility":{"wikimedia":true,"openstreetmap":true,"attribution_required":false}},"features":[{"type":"Feature","id":"natural-earth:10m:admin1:pcn:pn-x01","stable_id":"natural-earth:10m:admin1:pcn:pn-x01","version_id":"natural-earth:10m:admin1:pcn:pn-x01@natural-earth-10m-reference","name":"Pitcairninseln","wikidata_id":"","parent_id":"PCN","rank":2,"valid_from":"","valid_to":null,"valid_precision":"unknown","temporal_status":"undated_reference","properties":{"featurecla":"Admin-1 states provinces","scalerank":10,"adm1_code":"PCN+00?","diss_me":10135,"iso_3166_2":"PN-X01~","wikipedia":"","iso_a2":"PN","adm0_sr":3,"name":"Pitcairn Islands","name_alt":"","name_local":"","type":"","type_en":"","code_local":"","code_hasc":"PN.PN","note":"","hasc_maybe":"","region":"","region_cod":"","provnum_ne":0,"gadm_level":0,"check_me":0,"datarank":10,"abbrev":"","postal":"","area_sqkm":0,"sameascity":-99,"labelrank":20,"name_len":16,"mapcolor9":6,"mapcolor13":3,"fips":"","fips_alt":"","woe_id":23424918,"woe_label":"","woe_name":"Pitcairn Islands","latitude":-25.0707,"longitude":-130.102,"sov_a3":"GB1","adm0_a3":"PCN","adm0_label":5,"admin":"Pitcairn Islands","geonunit":"Pitcairn Islands","gu_a3":"PCN","gn_id":0,"gn_name":"","gns_id":0,"gns_name":"","gn_level":0,"gn_region":"","gn_a1_code":"PN.","region_sub":"","sub_code":"","gns_level":0,"gns_lang":"","gns_adm1":"","gns_region":"","min_label":18,"max_label":18,"min_zoom":18,"wikidataid":"","name_ar":"جزر بيتكيرن","name_bn":"পিটকেয়ার্ন আইল্যান্ড","name_de":"Pitcairninseln","name_en":"Pitcairn Islands","name_es":"Islas Pitcairn","name_fr":"Îles Pitcairn","name_el":"Νήσοι Πίτκερν","name_hi":"पिटकेर्न द्वीप समूह","name_hu":"Pitcairn-szigetek","name_id":"Kepulauan Pitcairn","name_it":"Isole Pitcairn","name_ja":"ピトケアン諸島","name_ko":"핏케언 아일랜즈","name_nl":"Pitcairneilanden","name_pl":"Wyspy Pitcairn","name_pt":"Ilhas Pitcairn","name_ru":"острова́ Пи́ткэрн","name_sv":"Pitcairnöarna","name_tr":"Pitcairn Adaları","name_vi":"Quần đảo Pitcairn","name_zh":"皮特凯恩群岛","ne_id":1159315485,"name_he":"איי פיטקארן","name_uk":"острови Піткейрн","name_ur":"پٹکیرن جزائر","name_fa":"جزایر پیتکرن","name_zht":"皮特凱恩群島","FCLASS_ISO":"","FCLASS_US":"","FCLASS_FR":"","FCLASS_RU":"","FCLASS_ES":"","FCLASS_CN":"","FCLASS_TW":"","FCLASS_IN":"","FCLASS_NP":"","FCLASS_PK":"","FCLASS_DE":"","FCLASS_GB":"","FCLASS_BR":"","FCLASS_IL":"","FCLASS_PS":"","FCLASS_SA":"","FCLASS_EG":"","FCLASS_MA":"","FCLASS_PT":"","FCLASS_AR":"","FCLASS_JP":"","FCLASS_KO":"","FCLASS_VN":"","FCLASS_TR":"","FCLASS_ID":"","FCLASS_PL":"","FCLASS_GR":"","FCLASS_IT":"","FCLASS_NL":"","FCLASS_SE":"","FCLASS_BD":"","FCLASS_UA":"","FCLASS_TLC":"","_ziselinTopology":"coast-aligned-to-ne_10m_land","ziselin_archive_type":"Gliedstaat / Provinz"},"match_tokens":["natural-earth:10m:admin1:pcn:pn-x01","PN-X01~","PCN+00?","PN.PN","Pitcairninseln","Pitcairn Islands"],"bbox":[-130.753082,-25.077081,-124.778066,-23.924412],"geometry":{"type":"MultiPolygon","coordinates":[[[[-130.120351,-25.068292],[-130.110463,-25.064386],[-130.101145,-25.064386],[-130.093007,-25.067966],[-130.086252,-25.075128],[-130.095937,-25.077081],[-130.105336,-25.076755],[-130.113678,-25.073826],[-130.120351,-25.068292]]],[[[-124.786163,-24.664565],[-124.797109,-24.667087],[-124.786529,-24.663995],[-124.785512,-24.663995],[-124.780588,-24.664646],[-124.77892,-24.667413],[-124.778066,-24.67254],[-124.778798,-24.668715],[-124.780588,-24.666599],[-124.78539,-24.664483],[-124.786163,-24.664565]]],[[[-128.33019,-24.324314],[-128.3037,-24.334649],[-128.290842,-24.365655],[-128.290151,-24.39837],[-128.30012,-24.41367],[-128.320668,-24.400649],[-128.342193,-24.371759],[-128.35025,-24.341241],[-128.33019,-24.324314]]],[[[-130.745269,-23.924412],[-130.741363,-23.924412],[-130.742096,-23.92783],[-130.746978,-23.932794],[-130.750844,-23.934666],[-130.753082,-23.92962],[-130.750844,-23.927179],[-130.748036,-23.927341],[-130.745269,-23.924412]]]]}}]}
