{"schema":"ziselin-boundary-set-country-chunk-v1","id":"natural-earth:10m:admin1:csi","title":"Natural Earth 10m Admin1 · CSI","provider":"Natural Earth","admin_level":"ADM1","rank":2,"country_iso3":"CSI","generated_from":"admin1-by-country","source":{"label":"Natural Earth","url":"https://www.naturalearthdata.com/","note":"Local EarthMap engine pilot build from Natural Earth 10m Admin-1, coast-aligned to the Natural Earth land layer."},"license":{"id":"public-domain","label":"Public Domain","url":"https://www.naturalearthdata.com/about/terms-of-use/","detail":"Natural Earth public domain map data.","compatibility":{"wikimedia":true,"openstreetmap":true,"attribution_required":false}},"features":[{"type":"Feature","id":"natural-earth:10m:admin1:csi:99-x03","stable_id":"natural-earth:10m:admin1:csi:99-x03","version_id":"natural-earth:10m:admin1:csi:99-x03@natural-earth-10m-reference","name":"Korallenmeerinseln","wikidata_id":"","parent_id":"CSI","rank":2,"valid_from":"","valid_to":null,"valid_precision":"unknown","temporal_status":"undated_reference","properties":{"featurecla":"Admin-1 states provinces","scalerank":10,"adm1_code":"CSI+00?","diss_me":10041,"iso_3166_2":"-99-X03~","wikipedia":"","iso_a2":"-1","adm0_sr":5,"name":"Coral Sea Islands","name_alt":"","name_local":"","type":"","type_en":"","code_local":"","code_hasc":"-99.X03~","note":"","hasc_maybe":"","region":"","region_cod":"","provnum_ne":0,"gadm_level":0,"check_me":0,"datarank":10,"abbrev":"","postal":"","area_sqkm":0,"sameascity":-99,"labelrank":20,"name_len":17,"mapcolor9":2,"mapcolor13":7,"fips":"","fips_alt":"","woe_id":23424790,"woe_label":"","woe_name":"Coral Sea Islands","latitude":-17.6554,"longitude":148.43,"sov_a3":"AU1","adm0_a3":"CSI","adm0_label":5,"admin":"Coral Sea Islands","geonunit":"Coral Sea Islands","gu_a3":"CSI","gn_id":0,"gn_name":"","gns_id":0,"gns_name":"","gn_level":0,"gn_region":"","gn_a1_code":"-1","region_sub":"","sub_code":"","gns_level":0,"gns_lang":"","gns_adm1":"","gns_region":"","min_label":11,"max_label":11,"min_zoom":11,"wikidataid":"","name_ar":"جزر بحر كورال","name_bn":"কোরাল সী আইল্যান্ড","name_de":"Korallenmeerinseln","name_en":"Coral Sea Islands","name_es":"Islas del Mar del Coral","name_fr":"Coral Sea Islands","name_el":"Νήσοι της Θάλασσας των Κοραλλιών","name_hi":"कोरल सागर द्वीप","name_hu":"Korall-tengeri-szigetek","name_id":"Kepulauan Laut Karang","name_it":"Isole del Mar dei Corall","name_ja":"コーラル・シー諸島","name_ko":"코랄 씨 아일랜즈","name_nl":"Koraalzee-eilanden","name_pl":"Wyspy Morza Koralowego","name_pt":"Ilhas do Mar de Coral","name_ru":"Террито́рия острово́в Кора́ллового мо́ря","name_sv":"Korallhavsöarna","name_tr":"Mercan Denizi Adaları","name_vi":"Quần đảo Biển San hô","name_zh":"珊瑚海群岛","ne_id":1159315797,"name_he":"איי ים האלמוגים","name_uk":"острови Коралового моря","name_ur":"کورال سمندری جزائر","name_fa":"جزایر کورال سی","name_zht":"珊瑚海群島","FCLASS_ISO":"","FCLASS_US":"","FCLASS_FR":"","FCLASS_RU":"","FCLASS_ES":"","FCLASS_CN":"","FCLASS_TW":"","FCLASS_IN":"","FCLASS_NP":"","FCLASS_PK":"","FCLASS_DE":"","FCLASS_GB":"","FCLASS_BR":"","FCLASS_IL":"","FCLASS_PS":"","FCLASS_SA":"","FCLASS_EG":"","FCLASS_MA":"","FCLASS_PT":"","FCLASS_AR":"","FCLASS_JP":"","FCLASS_KO":"","FCLASS_VN":"","FCLASS_TR":"","FCLASS_ID":"","FCLASS_PL":"","FCLASS_GR":"","FCLASS_IT":"","FCLASS_NL":"","FCLASS_SE":"","FCLASS_BD":"","FCLASS_UA":"","FCLASS_TLC":"","_ziselinTopology":"coast-aligned-to-ne_10m_land","ziselin_archive_type":"Gliedstaat / Provinz"},"match_tokens":["natural-earth:10m:admin1:csi:99-x03","-99-X03~","CSI+00?","-99.X03~","Korallenmeerinseln","Coral Sea Islands"],"bbox":[147.879893,-22.202732,155.801036,-16.132989],"geometry":{"type":"MultiPolygon","coordinates":[[[[154.391287,-21.030043],[154.38852,-21.029067],[154.391287,-21.028741],[154.391287,-21.030043]]],[[[155.169932,-22.202732],[155.168956,-22.201186],[155.170502,-22.200291],[155.169932,-22.202732]]],[[[155.458995,-22.175877],[155.460785,-22.173435],[155.462413,-22.175307],[155.45989,-22.176609],[155.458995,-22.175877]]],[[[153.552501,-21.911147],[153.551606,-21.911147],[153.552501,-21.909194],[153.552501,-21.911147]]],[[[153.556163,-21.910414],[153.556733,-21.908868],[153.557058,-21.910577],[153.556163,-21.910414]]],[[[153.506684,-21.891209],[153.50766,-21.890558],[153.508637,-21.891209],[153.508637,-21.89186],[153.50766,-21.89186],[153.506684,-21.891209]]],[[[153.641775,-21.858738],[153.642426,-21.857192],[153.642751,-21.858657],[153.641775,-21.858738]]],[[[153.761078,-21.636244],[153.762299,-21.634617],[153.762706,-21.635837],[153.762706,-21.636489],[153.761078,-21.636244]]],[[[155.730642,-21.284845],[155.730642,-21.283298],[155.732758,-21.284356],[155.730968,-21.28574],[155.730642,-21.284845]]],[[[155.797944,-21.27337],[155.799083,-21.270603],[155.801036,-21.272312],[155.79949,-21.273289],[155.797944,-21.27337]]],[[[148.516287,-17.866062],[148.516612,-17.865818],[148.516938,-17.867608],[148.515717,-17.868178],[148.51531,-17.867608],[148.515229,-17.86769],[148.514171,-17.866225],[148.516124,-17.86533],[148.516287,-17.866062]]],[[[148.440684,-17.735935],[148.439464,-17.734063],[148.44337,-17.73211],[148.440684,-17.735935]]],[[[148.429128,-17.65602],[148.430431,-17.654229],[148.43157,-17.655369],[148.430756,-17.656264],[148.429128,-17.65602]]],[[[149.920095,-16.963474],[149.920502,-16.96323],[149.920828,-16.96502],[149.919607,-16.96559],[149.919083,-16.965141],[149.919037,-16.965102],[149.917979,-16.963637],[149.919932,-16.962742],[149.920095,-16.963474]]],[[[149.999848,-16.93613],[149.999522,-16.939467],[149.996267,-16.9367],[149.999848,-16.93613]]],[[[147.882009,-16.480076],[147.882335,-16.479913],[147.88266,-16.481622],[147.88144,-16.482273],[147.880984,-16.481742],[147.880951,-16.481703],[147.879893,-16.480239],[147.881847,-16.479343],[147.882009,-16.480076]]],[[[150.000824,-16.230808],[149.999848,-16.23211],[149.998627,-16.230483],[149.999848,-16.230401],[150.000824,-16.230808]]],[[[150.009044,-16.134373],[150.007335,-16.136733],[149.999848,-16.135675],[149.998302,-16.135268],[150.000987,-16.134373],[150.003998,-16.135105],[150.009044,-16.134373]]],[[[149.99171,-16.133884],[149.99171,-16.132989],[149.996755,-16.133884],[149.99171,-16.133884]]],[[[153.488617,-21.847507],[153.489106,-21.847263],[153.48935,-21.849054],[153.488129,-21.849705],[153.487672,-21.849172],[153.487641,-21.849135],[153.486583,-21.84767],[153.488536,-21.846775],[153.488617,-21.847507]]],[[[149.976573,-16.293308],[149.976085,-16.296319],[149.974457,-16.295505],[149.976573,-16.293308]]]]}}]}
