{"schema":"ziselin-boundary-set-v1","id":"natural-earth:10m:admin0:esb","stable_id":"natural-earth:10m:admin0:esb","version_id":"natural-earth:10m:admin0:esb@natural-earth-10m-reference","title":"Dhekelia Cantonment","provider":"Natural Earth","provider_boundary_id":"ESB","boundary_type":"administrative","admin_level":"ADM0","rank":1,"country_iso3":"ESB","country_iso2":"-99","wikidata_id":"Q9206745","review_status":"engine-pilot","valid_from":"","valid_to":null,"valid_precision":"unknown","temporal_status":"undated_reference","temporal_note":"Natural Earth is used as a modern reference geometry. Legal or historical validity must be verified for specific use cases.","source":{"label":"Natural Earth","url":"https://www.naturalearthdata.com/","accessed_at":"","note":"Local EarthMap engine pilot build from Natural Earth 10m Admin-0, coast-aligned to the Natural Earth land layer."},"license":{"id":"public-domain","label":"Public Domain","url":"https://www.naturalearthdata.com/about/terms-of-use/","detail":"Natural Earth public domain map data.","compatibility":{"wikimedia":true,"openstreetmap":true,"attribution_required":false}},"data_binding":{"primary_key":"stable_id","provider_key":"provider_boundary_id","match_keys":["natural-earth:10m:admin0:esb","ESB","-99","Dhekelia Cantonment","Dekelia","Dhekelia","Dhekelia Sovereign Base Area","Q9206745"],"preferred_table_keys":["boundary_key","stable_id","iso3","wikidata_id","boundary_label","name"]},"bbox":[33.674099,34.937893,33.921474,35.118994],"features":[{"type":"Feature","id":"natural-earth:10m:admin0:esb","stable_id":"natural-earth:10m:admin0:esb","version_id":"natural-earth:10m:admin0:esb@natural-earth-10m-reference","name":"Dhekelia Cantonment","wikidata_id":"Q9206745","parent_id":"","rank":1,"valid_from":"","valid_to":null,"valid_precision":"unknown","temporal_status":"undated_reference","properties":{"featurecla":"Admin-0 country","scalerank":3,"LABELRANK":3,"SOVEREIGNT":"United Kingdom","SOV_A3":"GB1","ADM0_DIF":1,"LEVEL":2,"TYPE":"Dependency","TLC":"1","ADMIN":"Dhekelia Sovereign Base Area","ADM0_A3":"ESB","GEOU_DIF":0,"GEOUNIT":"Dhekelia Sovereign Base Area","GU_A3":"ESB","SU_DIF":0,"SUBUNIT":"Dhekelia Sovereign Base Area","SU_A3":"ESB","BRK_DIFF":0,"NAME":"Dhekelia","NAME_LONG":"Dhekelia","BRK_A3":"ESB","BRK_NAME":"Dhekelia","BRK_GROUP":null,"ABBREV":"Dhek.","POSTAL":"DH","FORMAL_EN":null,"FORMAL_FR":null,"NAME_CIAWF":null,"NOTE_ADM0":"U.K.","NOTE_BRK":"U.K. Base","NAME_SORT":"Dhekelia Sovereign Base Area","NAME_ALT":null,"MAPCOLOR7":6,"MAPCOLOR8":6,"MAPCOLOR9":6,"MAPCOLOR13":3,"POP_EST":7850,"POP_RANK":5,"POP_YEAR":2013,"GDP_MD":314,"GDP_YEAR":2013,"ECONOMY":"2. Developed region: nonG7","INCOME_GRP":"2. High income: nonOECD","FIPS_10":"-99","ISO_A2":"-99","ISO_A2_EH":"-99","ISO_A3":"-99","ISO_A3_EH":"-99","ISO_N3":"-99","ISO_N3_EH":"-99","UN_A3":"-099","WB_A2":"-99","WB_A3":"-99","WOE_ID":-99,"WOE_ID_EH":-99,"WOE_NOTE":"No WOE equivalent.","ADM0_ISO":"-99","ADM0_DIFF":"1","ADM0_TLC":"ESB","ADM0_A3_US":"ESB","ADM0_A3_FR":"ESB","ADM0_A3_RU":"ESB","ADM0_A3_ES":"ESB","ADM0_A3_CN":"ESB","ADM0_A3_TW":"ESB","ADM0_A3_IN":"ESB","ADM0_A3_NP":"ESB","ADM0_A3_PK":"ESB","ADM0_A3_DE":"ESB","ADM0_A3_GB":"ESB","ADM0_A3_BR":"ESB","ADM0_A3_IL":"ESB","ADM0_A3_PS":"ESB","ADM0_A3_SA":"ESB","ADM0_A3_EG":"ESB","ADM0_A3_MA":"ESB","ADM0_A3_PT":"ESB","ADM0_A3_AR":"ESB","ADM0_A3_JP":"ESB","ADM0_A3_KO":"ESB","ADM0_A3_VN":"ESB","ADM0_A3_TR":"ESB","ADM0_A3_ID":"ESB","ADM0_A3_PL":"ESB","ADM0_A3_GR":"ESB","ADM0_A3_IT":"ESB","ADM0_A3_NL":"ESB","ADM0_A3_SE":"ESB","ADM0_A3_BD":"ESB","ADM0_A3_UA":"ESB","ADM0_A3_UN":-99,"ADM0_A3_WB":-99,"CONTINENT":"Asia","REGION_UN":"Asia","SUBREGION":"Western Asia","REGION_WB":"Europe & Central Asia","NAME_LEN":8,"LONG_LEN":8,"ABBREV_LEN":5,"TINY":3,"HOMEPART":-99,"MIN_ZOOM":0,"MIN_LABEL":6.5,"MAX_LABEL":11,"LABEL_X":33.790583,"LABEL_Y":35.011042,"NE_ID":1159320709,"WIKIDATAID":"Q9206745","NAME_AR":"ديكيليا كانتونمنت","NAME_BN":"দেখেলিয়া ক্যান্টনমেন্ট","NAME_DE":"Dekelia","NAME_EN":"Dhekelia Cantonment","NAME_ES":"Dekelia","NAME_FA":"دکلیا","NAME_FR":"Dhekelia","NAME_EL":"Ντεκέλια Κάντονμεντ","NAME_HE":"דקליה","NAME_HI":"ढेकेलिया छावनी","NAME_HU":"Dekélia","NAME_ID":"Dhekelia Cantonment","NAME_IT":"Base di Dhekelia","NAME_JA":"デケリア","NAME_KO":"데켈리아 지역","NAME_NL":"Dhekelia Cantonment","NAME_PL":"Dhekelia","NAME_PT":"Deceleia","NAME_RU":"Декелия","NAME_SV":"Dhekelia","NAME_TR":"Dhekelia Kantonu","NAME_UK":"Муніципалітет Декелія","NAME_UR":"دحیکیلیا کانتونمینٹ","NAME_VI":"Căn cứ quân sự Dhekelia","NAME_ZH":"泽凯利亚军营","NAME_ZHT":"德凱利亞軍營","FCLASS_ISO":"Unrecognized","TLC_DIFF":"1","FCLASS_TLC":"Admin-0 dependency","FCLASS_US":"Admin-0 dependency","FCLASS_FR":"Admin-0 dependency","FCLASS_RU":null,"FCLASS_ES":"Admin-0 dependency","FCLASS_CN":null,"FCLASS_TW":null,"FCLASS_IN":null,"FCLASS_NP":null,"FCLASS_PK":null,"FCLASS_DE":"Admin-0 dependency","FCLASS_GB":"Admin-0 dependency","FCLASS_BR":null,"FCLASS_IL":null,"FCLASS_PS":null,"FCLASS_SA":null,"FCLASS_EG":null,"FCLASS_MA":null,"FCLASS_PT":"Admin-0 dependency","FCLASS_AR":null,"FCLASS_JP":null,"FCLASS_KO":"Admin-0 dependency","FCLASS_VN":null,"FCLASS_TR":"Admin-0 dependency","FCLASS_ID":null,"FCLASS_PL":"Admin-0 dependency","FCLASS_GR":"Admin-0 dependency","FCLASS_IT":"Admin-0 dependency","FCLASS_NL":"Admin-0 dependency","FCLASS_SE":"Admin-0 dependency","FCLASS_BD":null,"FCLASS_UA":"Admin-0 dependency","_ziselinTopology":"coast-aligned-to-ne_10m_land","ziselin_archive_type":"Staat / abhängiges Gebiet"},"match_tokens":["natural-earth:10m:admin0:esb","ESB","-99","Dhekelia Cantonment","Dekelia","Dhekelia","Dhekelia Sovereign Base Area","Q9206745"],"geometry":{"type":"Polygon","coordinates":[[[33.780935,34.976345],[33.760427,34.979682],[33.717296,34.977769],[33.701508,34.972886],[33.702935,34.987943],[33.717296,34.977769],[33.71544,34.997296],[33.699731,35.002722],[33.69663,35.008975],[33.705312,35.015228],[33.702211,35.022256],[33.685003,35.029284],[33.679435,35.033899],[33.675649,35.037036],[33.674099,35.046441],[33.678853,35.055794],[33.69446,35.058171],[33.705312,35.06675],[33.714717,35.06675],[33.719368,35.06277],[33.711461,35.040963],[33.707585,35.029284],[33.718489,35.032385],[33.739677,35.047216],[33.766135,35.03161],[33.77554,35.040188],[33.786495,35.038534],[33.79435,35.040188],[33.798278,35.052642],[33.824012,35.06675],[33.834865,35.063597],[33.842719,35.056621],[33.853571,35.058171],[33.866904,35.06675],[33.871555,35.073054],[33.876929,35.076826],[33.871555,35.085456],[33.871555,35.100236],[33.876206,35.118994],[33.889435,35.118994],[33.891812,35.110468],[33.89884,35.108814],[33.903594,35.099512],[33.905868,35.09636],[33.905868,35.090882],[33.913619,35.090882],[33.921474,35.080702],[33.914446,35.073054],[33.908245,35.070729],[33.906505,35.069105],[33.898116,35.061272],[33.880133,35.073054],[33.874655,35.067525],[33.867627,35.060497],[33.855122,35.053417],[33.841169,35.051092],[33.834865,35.056621],[33.827113,35.061272],[33.813781,35.055794],[33.804375,35.049541],[33.799001,35.038534],[33.822359,35.030059],[33.830214,35.023031],[33.829387,35.001172],[33.840342,34.993369],[33.859049,34.991819],[33.859049,34.974662],[33.850471,34.973009],[33.829687,34.956701],[33.84582,34.959728],[33.864423,34.962983],[33.89184,34.958139],[33.8838,34.949123],[33.874522,34.94123],[33.862315,34.937893],[33.847423,34.94245],[33.819672,34.964748],[33.80421,34.972602],[33.78183,34.976223],[33.784831,34.975738],[33.787635,34.975284],[33.792031,34.974572],[33.793523,34.974331],[33.78936,34.975005],[33.784357,34.975814],[33.780561,34.976406],[33.776086,34.977134],[33.77399,34.988666],[33.766135,34.990268],[33.761484,34.990268],[33.760427,34.979682],[33.76385,34.979125],[33.768002,34.978449],[33.770397,34.97806],[33.774872,34.977332],[33.779527,34.976574],[33.780935,34.976345]],[[33.742792,35.001233],[33.746689,35.002711],[33.752063,35.004323],[33.752063,35.0144],[33.746151,35.015207],[33.741314,35.013729],[33.740239,35.010101],[33.738761,35.005264],[33.739702,35.002576],[33.742792,35.001233]]]}}]}
