{"schema":"ziselin-boundary-set-v1","id":"natural-earth:10m:admin0:scr","stable_id":"natural-earth:10m:admin0:scr","version_id":"natural-earth:10m:admin0:scr@natural-earth-10m-reference","title":"Scarborough Shoal","provider":"Natural Earth","provider_boundary_id":"SCR","boundary_type":"administrative","admin_level":"ADM0","rank":1,"country_iso3":"SCR","country_iso2":"-99","wikidata_id":"Q628716","review_status":"engine-pilot","valid_from":"","valid_to":null,"valid_precision":"unknown","temporal_status":"undated_reference","temporal_note":"Natural Earth is used as a modern reference geometry. Legal or historical validity must be verified for specific use cases.","source":{"label":"Natural Earth","url":"https://www.naturalearthdata.com/","accessed_at":"","note":"Local EarthMap engine pilot build from Natural Earth 10m Admin-0, coast-aligned to the Natural Earth land layer."},"license":{"id":"public-domain","label":"Public Domain","url":"https://www.naturalearthdata.com/about/terms-of-use/","detail":"Natural Earth public domain map data.","compatibility":{"wikimedia":true,"openstreetmap":true,"attribution_required":false}},"data_binding":{"primary_key":"stable_id","provider_key":"provider_boundary_id","match_keys":["natural-earth:10m:admin0:scr","SCR","-99","Scarborough Shoal","Scarborough-Riff","Scarborough Reef","Q628716"],"preferred_table_keys":["boundary_key","stable_id","iso3","wikidata_id","boundary_label","name"]},"bbox":[117.751856,15.150082,117.755692,15.154369],"features":[{"type":"Feature","id":"natural-earth:10m:admin0:scr","stable_id":"natural-earth:10m:admin0:scr","version_id":"natural-earth:10m:admin0:scr@natural-earth-10m-reference","name":"Scarborough Shoal","wikidata_id":"Q628716","parent_id":"","rank":1,"valid_from":"","valid_to":null,"valid_precision":"unknown","temporal_status":"undated_reference","properties":{"featurecla":"Admin-0 country","scalerank":6,"LABELRANK":6,"SOVEREIGNT":"Scarborough Reef","SOV_A3":"SCR","ADM0_DIF":0,"LEVEL":2,"TYPE":"Indeterminate","TLC":"1","ADMIN":"Scarborough Reef","ADM0_A3":"SCR","GEOU_DIF":0,"GEOUNIT":"Scarborough Reef","GU_A3":"SCR","SU_DIF":0,"SUBUNIT":"Scarborough Reef","SU_A3":"SCR","BRK_DIFF":1,"NAME":"Scarborough Reef","NAME_LONG":"Scarborough Reef","BRK_A3":"B70","BRK_NAME":"Scarborough Reef","BRK_GROUP":null,"ABBREV":"S.R.","POSTAL":"SR","FORMAL_EN":null,"FORMAL_FR":null,"NAME_CIAWF":null,"NOTE_ADM0":"Disputed","NOTE_BRK":null,"NAME_SORT":null,"NAME_ALT":null,"MAPCOLOR7":3,"MAPCOLOR8":7,"MAPCOLOR9":6,"MAPCOLOR13":-99,"POP_EST":0,"POP_RANK":1,"POP_YEAR":2019,"GDP_MD":0,"GDP_YEAR":2016,"ECONOMY":"7. Least developed region","INCOME_GRP":"5. Low income","FIPS_10":"-99","ISO_A2":"-99","ISO_A2_EH":"-99","ISO_A3":"-99","ISO_A3_EH":"-99","ISO_N3":"-99","ISO_N3_EH":"-99","UN_A3":"-099","WB_A2":"-99","WB_A3":"-99","WOE_ID":-99,"WOE_ID_EH":-99,"WOE_NOTE":"No WOE equivalent.","ADM0_ISO":"-99","ADM0_DIFF":"1","ADM0_TLC":"SCR","ADM0_A3_US":"SCR","ADM0_A3_FR":"SCR","ADM0_A3_RU":"SCR","ADM0_A3_ES":"SCR","ADM0_A3_CN":"SCR","ADM0_A3_TW":"SCR","ADM0_A3_IN":"SCR","ADM0_A3_NP":"SCR","ADM0_A3_PK":"SCR","ADM0_A3_DE":"SCR","ADM0_A3_GB":"SCR","ADM0_A3_BR":"SCR","ADM0_A3_IL":"SCR","ADM0_A3_PS":"SCR","ADM0_A3_SA":"SCR","ADM0_A3_EG":"SCR","ADM0_A3_MA":"SCR","ADM0_A3_PT":"SCR","ADM0_A3_AR":"SCR","ADM0_A3_JP":"SCR","ADM0_A3_KO":"SCR","ADM0_A3_VN":"SCR","ADM0_A3_TR":"SCR","ADM0_A3_ID":"SCR","ADM0_A3_PL":"SCR","ADM0_A3_GR":"SCR","ADM0_A3_IT":"SCR","ADM0_A3_NL":"SCR","ADM0_A3_SE":"SCR","ADM0_A3_BD":"SCR","ADM0_A3_UA":"SCR","ADM0_A3_UN":-99,"ADM0_A3_WB":-99,"CONTINENT":"Asia","REGION_UN":"Asia","SUBREGION":"South-Eastern Asia","REGION_WB":"East Asia & Pacific","NAME_LEN":16,"LONG_LEN":16,"ABBREV_LEN":4,"TINY":-99,"HOMEPART":1,"MIN_ZOOM":7,"MIN_LABEL":6,"MAX_LABEL":10,"LABEL_X":117.753812,"LABEL_Y":15.152039,"NE_ID":1159321227,"WIKIDATAID":"Q628716","NAME_AR":"سكاربورو شول","NAME_BN":"স্কারবোরো সোয়াল","NAME_DE":"Scarborough-Riff","NAME_EN":"Scarborough Shoal","NAME_ES":"Bajo de Masinloc","NAME_FA":"سد ساحلی اسکاربرو","NAME_FR":"Récif de Scarborough","NAME_EL":"Ύφαλος Σκάρμπορο","NAME_HE":"סקרבורו שואל","NAME_HI":"स्कारबरो शोल","NAME_HU":"Scarborough-zátony","NAME_ID":"Gosong Scarborough","NAME_IT":"Scarborough Shoal","NAME_JA":"スカボロー礁","NAME_KO":"스카버러 암초","NAME_NL":"Scarborough-rif","NAME_PL":"Huangyan Dao","NAME_PT":"Recife de Masinloc","NAME_RU":"Скарборо-Шол","NAME_SV":"Scarboroughrevet","NAME_TR":"Scarborough Shoal","NAME_UK":"Скарборо","NAME_UR":"سکیربورو شوال","NAME_VI":"Bãi cạn Scarborough","NAME_ZH":"黄岩岛","NAME_ZHT":"民主礁","FCLASS_ISO":"Unrecognized","TLC_DIFF":"1","FCLASS_TLC":"Admin-0 indeterminant","FCLASS_US":null,"FCLASS_FR":null,"FCLASS_RU":null,"FCLASS_ES":null,"FCLASS_CN":null,"FCLASS_TW":null,"FCLASS_IN":null,"FCLASS_NP":null,"FCLASS_PK":null,"FCLASS_DE":null,"FCLASS_GB":null,"FCLASS_BR":null,"FCLASS_IL":null,"FCLASS_PS":null,"FCLASS_SA":null,"FCLASS_EG":null,"FCLASS_MA":null,"FCLASS_PT":null,"FCLASS_AR":null,"FCLASS_JP":null,"FCLASS_KO":null,"FCLASS_VN":null,"FCLASS_TR":null,"FCLASS_ID":null,"FCLASS_PL":null,"FCLASS_GR":null,"FCLASS_IT":null,"FCLASS_NL":null,"FCLASS_SE":null,"FCLASS_BD":null,"FCLASS_UA":null,"_ziselinTopology":"coast-aligned-to-ne_10m_land","ziselin_archive_type":"Staat / abhängiges Gebiet"},"match_tokens":["natural-earth:10m:admin0:scr","SCR","-99","Scarborough Shoal","Scarborough-Riff","Scarborough Reef","Q628716"],"geometry":{"type":"Polygon","coordinates":[[[117.753887,15.154369],[117.755692,15.151887],[117.753887,15.150082],[117.751856,15.151887],[117.753887,15.154369]]]}}]}
