{"schema":"ziselin-boundary-set-v1","id":"natural-earth:10m:admin0:wsb","stable_id":"natural-earth:10m:admin0:wsb","version_id":"natural-earth:10m:admin0:wsb@natural-earth-10m-reference","title":"Akrotiri Sovereign Base Area","provider":"Natural Earth","provider_boundary_id":"WSB","boundary_type":"administrative","admin_level":"ADM0","rank":1,"country_iso3":"WSB","country_iso2":"-99","wikidata_id":"Q9143535","review_status":"engine-pilot","valid_from":"","valid_to":null,"valid_precision":"unknown","temporal_status":"undated_reference","temporal_note":"Natural Earth is used as a modern reference geometry. Legal or historical validity must be verified for specific use cases.","source":{"label":"Natural Earth","url":"https://www.naturalearthdata.com/","accessed_at":"","note":"Local EarthMap engine pilot build from Natural Earth 10m Admin-0, coast-aligned to the Natural Earth land layer."},"license":{"id":"public-domain","label":"Public Domain","url":"https://www.naturalearthdata.com/about/terms-of-use/","detail":"Natural Earth public domain map data.","compatibility":{"wikimedia":true,"openstreetmap":true,"attribution_required":false}},"data_binding":{"primary_key":"stable_id","provider_key":"provider_boundary_id","match_keys":["natural-earth:10m:admin0:wsb","WSB","-99","Akrotiri Sovereign Base Area","Akrotiri","Q9143535"],"preferred_table_keys":["boundary_key","stable_id","iso3","wikidata_id","boundary_label","name"]},"bbox":[32.760102,34.568549,33.030284,34.700948],"features":[{"type":"Feature","id":"natural-earth:10m:admin0:wsb","stable_id":"natural-earth:10m:admin0:wsb","version_id":"natural-earth:10m:admin0:wsb@natural-earth-10m-reference","name":"Akrotiri Sovereign Base Area","wikidata_id":"Q9143535","parent_id":"","rank":1,"valid_from":"","valid_to":null,"valid_precision":"unknown","temporal_status":"undated_reference","properties":{"featurecla":"Admin-0 country","scalerank":3,"LABELRANK":3,"SOVEREIGNT":"United Kingdom","SOV_A3":"GB1","ADM0_DIF":1,"LEVEL":2,"TYPE":"Dependency","TLC":"1","ADMIN":"Akrotiri Sovereign Base Area","ADM0_A3":"WSB","GEOU_DIF":0,"GEOUNIT":"Akrotiri Sovereign Base Area","GU_A3":"WSB","SU_DIF":0,"SUBUNIT":"Akrotiri Sovereign Base Area","SU_A3":"WSB","BRK_DIFF":0,"NAME":"Akrotiri","NAME_LONG":"Akrotiri","BRK_A3":"WSB","BRK_NAME":"Akrotiri","BRK_GROUP":null,"ABBREV":"Akr.","POSTAL":"AK","FORMAL_EN":null,"FORMAL_FR":null,"NAME_CIAWF":null,"NOTE_ADM0":"U.K.","NOTE_BRK":"U.K. Base","NAME_SORT":"Akrotiri Sovereign Base Area","NAME_ALT":null,"MAPCOLOR7":6,"MAPCOLOR8":6,"MAPCOLOR9":6,"MAPCOLOR13":3,"POP_EST":7850,"POP_RANK":5,"POP_YEAR":2017,"GDP_MD":314,"GDP_YEAR":2016,"ECONOMY":"2. Developed region: nonG7","INCOME_GRP":"2. High income: nonOECD","FIPS_10":"-99","ISO_A2":"-99","ISO_A2_EH":"-99","ISO_A3":"-99","ISO_A3_EH":"-99","ISO_N3":"-99","ISO_N3_EH":"-99","UN_A3":"-099","WB_A2":"-99","WB_A3":"-99","WOE_ID":-99,"WOE_ID_EH":-99,"WOE_NOTE":"No WOE equivalent.","ADM0_ISO":"-99","ADM0_DIFF":"1","ADM0_TLC":"WSB","ADM0_A3_US":"WSB","ADM0_A3_FR":"WSB","ADM0_A3_RU":"WSB","ADM0_A3_ES":"WSB","ADM0_A3_CN":"WSB","ADM0_A3_TW":"WSB","ADM0_A3_IN":"WSB","ADM0_A3_NP":"WSB","ADM0_A3_PK":"WSB","ADM0_A3_DE":"WSB","ADM0_A3_GB":"WSB","ADM0_A3_BR":"WSB","ADM0_A3_IL":"WSB","ADM0_A3_PS":"WSB","ADM0_A3_SA":"WSB","ADM0_A3_EG":"WSB","ADM0_A3_MA":"WSB","ADM0_A3_PT":"WSB","ADM0_A3_AR":"WSB","ADM0_A3_JP":"WSB","ADM0_A3_KO":"WSB","ADM0_A3_VN":"WSB","ADM0_A3_TR":"WSB","ADM0_A3_ID":"WSB","ADM0_A3_PL":"WSB","ADM0_A3_GR":"WSB","ADM0_A3_IT":"WSB","ADM0_A3_NL":"WSB","ADM0_A3_SE":"WSB","ADM0_A3_BD":"WSB","ADM0_A3_UA":"WSB","ADM0_A3_UN":-99,"ADM0_A3_WB":-99,"CONTINENT":"Asia","REGION_UN":"Asia","SUBREGION":"Western Asia","REGION_WB":"Europe & Central Asia","NAME_LEN":8,"LONG_LEN":8,"ABBREV_LEN":4,"TINY":-99,"HOMEPART":-99,"MIN_ZOOM":0,"MIN_LABEL":6.5,"MAX_LABEL":11,"LABEL_X":32.979025,"LABEL_Y":34.60083,"NE_ID":1159320741,"WIKIDATAID":"Q9143535","NAME_AR":"أكروتيري","NAME_BN":"আক্রোতিরি","NAME_DE":"Akrotiri","NAME_EN":"Akrotiri Sovereign Base Area","NAME_ES":"Akrotiri","NAME_FA":"آکروتییری","NAME_FR":"Akrotiri","NAME_EL":"Δυτική Περιοχή Κυρίαρχων Βάσεων","NAME_HE":"אקרוטירי","NAME_HI":"अक्रोतिरी","NAME_HU":"Akrotíri","NAME_ID":"Akrotiri","NAME_IT":"Akrotiri","NAME_JA":"アクロティリ","NAME_KO":"아크로티리","NAME_NL":"Akrotiri","NAME_PL":"Akrotiri","NAME_PT":"Acrotíri","NAME_RU":"Акротири","NAME_SV":"Akrotiri","NAME_TR":"Ağrotur","NAME_UK":"Акротірі","NAME_UR":"ایکروٹیری","NAME_VI":"Akrotiri","NAME_ZH":"阿克罗蒂里主权基地区","NAME_ZHT":"阿克罗蒂里主权基地区","FCLASS_ISO":"Unrecognized","TLC_DIFF":"1","FCLASS_TLC":"Admin-0 dependency","FCLASS_US":"Admin-0 dependency","FCLASS_FR":"Admin-0 dependency","FCLASS_RU":null,"FCLASS_ES":"Admin-0 dependency","FCLASS_CN":null,"FCLASS_TW":null,"FCLASS_IN":null,"FCLASS_NP":null,"FCLASS_PK":null,"FCLASS_DE":"Admin-0 dependency","FCLASS_GB":"Admin-0 dependency","FCLASS_BR":null,"FCLASS_IL":null,"FCLASS_PS":null,"FCLASS_SA":null,"FCLASS_EG":null,"FCLASS_MA":null,"FCLASS_PT":"Admin-0 dependency","FCLASS_AR":null,"FCLASS_JP":"Admin-0 dependency","FCLASS_KO":"Admin-0 dependency","FCLASS_VN":null,"FCLASS_TR":"Admin-0 dependency","FCLASS_ID":null,"FCLASS_PL":"Admin-0 dependency","FCLASS_GR":"Admin-0 dependency","FCLASS_IT":"Admin-0 dependency","FCLASS_NL":"Admin-0 dependency","FCLASS_SE":"Admin-0 dependency","FCLASS_BD":null,"FCLASS_UA":"Admin-0 dependency","_ziselinTopology":"coast-aligned-to-ne_10m_land","ziselin_archive_type":"Staat / abhängiges Gebiet"},"match_tokens":["natural-earth:10m:admin0:wsb","WSB","-99","Akrotiri Sovereign Base Area","Akrotiri","Q9143535"],"geometry":{"type":"Polygon","coordinates":[[[33.015635,34.634425],[33.009939,34.624905],[33.009125,34.597398],[33.030284,34.574774],[33.030284,34.568549],[32.940929,34.568549],[32.940929,34.574774],[32.944672,34.593695],[32.915863,34.63939],[32.913585,34.656684],[32.857432,34.669013],[32.834321,34.670966],[32.812836,34.668647],[32.760671,34.653225],[32.760102,34.66911],[32.766766,34.676144],[32.778613,34.673182],[32.801128,34.665186],[32.806009,34.68577],[32.819336,34.687621],[32.822668,34.691323],[32.827481,34.696506],[32.832294,34.700948],[32.835626,34.699838],[32.840809,34.699467],[32.845992,34.699467],[32.853766,34.699467],[32.85969,34.700578],[32.86043,34.687621],[32.865613,34.678735],[32.883432,34.663304],[32.912572,34.656906],[32.917246,34.667136],[32.929752,34.662485],[32.936056,34.657731],[32.942258,34.667136],[32.954712,34.677316],[32.987526,34.673389],[32.9898,34.646103],[32.970266,34.646103],[32.965615,34.651581],[32.95404,34.642951],[32.95559,34.628895],[32.962515,34.625019],[32.969543,34.632047],[32.99073,34.634425],[33.015635,34.634425]]]}}]}
