{"schema":"ziselin-boundary-set-v1","id":"natural-earth:10m:admin0:mco","stable_id":"natural-earth:10m:admin0:mco","version_id":"natural-earth:10m:admin0:mco@natural-earth-10m-reference","title":"Monaco","provider":"Natural Earth","provider_boundary_id":"MCO","boundary_type":"administrative","admin_level":"ADM0","rank":1,"country_iso3":"MCO","country_iso2":"MC","wikidata_id":"Q235","review_status":"engine-pilot","valid_from":"","valid_to":null,"valid_precision":"unknown","temporal_status":"undated_reference","temporal_note":"Natural Earth is used as a modern reference geometry. Legal or historical validity must be verified for specific use cases.","source":{"label":"Natural Earth","url":"https://www.naturalearthdata.com/","accessed_at":"","note":"Local EarthMap engine pilot build from Natural Earth 10m Admin-0, coast-aligned to the Natural Earth land layer."},"license":{"id":"public-domain","label":"Public Domain","url":"https://www.naturalearthdata.com/about/terms-of-use/","detail":"Natural Earth public domain map data.","compatibility":{"wikimedia":true,"openstreetmap":true,"attribution_required":false}},"data_binding":{"primary_key":"stable_id","provider_key":"provider_boundary_id","match_keys":["natural-earth:10m:admin0:mco","MCO","MC","Monaco","Q235"],"preferred_table_keys":["boundary_key","stable_id","iso3","wikidata_id","boundary_label","name"]},"bbox":[7.36575,43.717969,7.437454,43.763506],"features":[{"type":"Feature","id":"natural-earth:10m:admin0:mco","stable_id":"natural-earth:10m:admin0:mco","version_id":"natural-earth:10m:admin0:mco@natural-earth-10m-reference","name":"Monaco","wikidata_id":"Q235","parent_id":"","rank":1,"valid_from":"","valid_to":null,"valid_precision":"unknown","temporal_status":"undated_reference","properties":{"featurecla":"Admin-0 country","scalerank":0,"LABELRANK":6,"SOVEREIGNT":"Monaco","SOV_A3":"MCO","ADM0_DIF":0,"LEVEL":2,"TYPE":"Sovereign country","TLC":"1","ADMIN":"Monaco","ADM0_A3":"MCO","GEOU_DIF":0,"GEOUNIT":"Monaco","GU_A3":"MCO","SU_DIF":0,"SUBUNIT":"Monaco","SU_A3":"MCO","BRK_DIFF":0,"NAME":"Monaco","NAME_LONG":"Monaco","BRK_A3":"MCO","BRK_NAME":"Monaco","BRK_GROUP":null,"ABBREV":"Mco.","POSTAL":"MC","FORMAL_EN":"Principality of Monaco","FORMAL_FR":null,"NAME_CIAWF":"Monaco","NOTE_ADM0":null,"NOTE_BRK":null,"NAME_SORT":"Monaco","NAME_ALT":null,"MAPCOLOR7":1,"MAPCOLOR8":1,"MAPCOLOR9":2,"MAPCOLOR13":12,"POP_EST":38964,"POP_RANK":7,"POP_YEAR":2019,"GDP_MD":7188,"GDP_YEAR":2018,"ECONOMY":"2. Developed region: nonG7","INCOME_GRP":"2. High income: nonOECD","FIPS_10":"MN","ISO_A2":"MC","ISO_A2_EH":"MC","ISO_A3":"MCO","ISO_A3_EH":"MCO","ISO_N3":"492","ISO_N3_EH":"492","UN_A3":"492","WB_A2":"MC","WB_A3":"MCO","WOE_ID":23424892,"WOE_ID_EH":23424892,"WOE_NOTE":"Exact WOE match as country","ADM0_ISO":"MCO","ADM0_DIFF":null,"ADM0_TLC":"MCO","ADM0_A3_US":"MCO","ADM0_A3_FR":"MCO","ADM0_A3_RU":"MCO","ADM0_A3_ES":"MCO","ADM0_A3_CN":"MCO","ADM0_A3_TW":"MCO","ADM0_A3_IN":"MCO","ADM0_A3_NP":"MCO","ADM0_A3_PK":"MCO","ADM0_A3_DE":"MCO","ADM0_A3_GB":"MCO","ADM0_A3_BR":"MCO","ADM0_A3_IL":"MCO","ADM0_A3_PS":"MCO","ADM0_A3_SA":"MCO","ADM0_A3_EG":"MCO","ADM0_A3_MA":"MCO","ADM0_A3_PT":"MCO","ADM0_A3_AR":"MCO","ADM0_A3_JP":"MCO","ADM0_A3_KO":"MCO","ADM0_A3_VN":"MCO","ADM0_A3_TR":"MCO","ADM0_A3_ID":"MCO","ADM0_A3_PL":"MCO","ADM0_A3_GR":"MCO","ADM0_A3_IT":"MCO","ADM0_A3_NL":"MCO","ADM0_A3_SE":"MCO","ADM0_A3_BD":"MCO","ADM0_A3_UA":"MCO","ADM0_A3_UN":-99,"ADM0_A3_WB":-99,"CONTINENT":"Europe","REGION_UN":"Europe","SUBREGION":"Western Europe","REGION_WB":"Europe & Central Asia","NAME_LEN":6,"LONG_LEN":6,"ABBREV_LEN":4,"TINY":5,"HOMEPART":1,"MIN_ZOOM":0,"MIN_LABEL":5,"MAX_LABEL":10,"LABEL_X":7.398291,"LABEL_Y":43.739652,"NE_ID":1159321043,"WIKIDATAID":"Q235","NAME_AR":"موناكو","NAME_BN":"মোনাকো","NAME_DE":"Monaco","NAME_EN":"Monaco","NAME_ES":"Mónaco","NAME_FA":"موناکو","NAME_FR":"Monaco","NAME_EL":"Μονακό","NAME_HE":"מונקו","NAME_HI":"मोनैको","NAME_HU":"Monaco","NAME_ID":"Monako","NAME_IT":"Principato di Monaco","NAME_JA":"モナコ","NAME_KO":"모나코","NAME_NL":"Monaco","NAME_PL":"Monako","NAME_PT":"Mónaco","NAME_RU":"Монако","NAME_SV":"Monaco","NAME_TR":"Monako","NAME_UK":"Монако","NAME_UR":"موناکو","NAME_VI":"Monaco","NAME_ZH":"摩纳哥","NAME_ZHT":"摩納哥","FCLASS_ISO":"Admin-0 country","TLC_DIFF":null,"FCLASS_TLC":"Admin-0 country","FCLASS_US":null,"FCLASS_FR":null,"FCLASS_RU":null,"FCLASS_ES":null,"FCLASS_CN":null,"FCLASS_TW":null,"FCLASS_IN":null,"FCLASS_NP":null,"FCLASS_PK":null,"FCLASS_DE":null,"FCLASS_GB":null,"FCLASS_BR":null,"FCLASS_IL":null,"FCLASS_PS":null,"FCLASS_SA":null,"FCLASS_EG":null,"FCLASS_MA":null,"FCLASS_PT":null,"FCLASS_AR":null,"FCLASS_JP":null,"FCLASS_KO":null,"FCLASS_VN":null,"FCLASS_TR":null,"FCLASS_ID":null,"FCLASS_PL":null,"FCLASS_GR":null,"FCLASS_IT":null,"FCLASS_NL":null,"FCLASS_SE":null,"FCLASS_BD":null,"FCLASS_UA":null,"_ziselinTopology":"coast-aligned-to-ne_10m_land","ziselin_archive_type":"Staat / abhängiges Gebiet"},"match_tokens":["natural-earth:10m:admin0:mco","MCO","MC","Monaco","Q235"],"geometry":{"type":"Polygon","coordinates":[[[7.437454,43.743361],[7.432845,43.739853],[7.417957,43.730904],[7.404319,43.717969],[7.380723,43.719273],[7.36575,43.72273],[7.367263,43.734125],[7.372655,43.745832],[7.387538,43.757899],[7.406969,43.763506],[7.426246,43.755464],[7.437454,43.743361]]]}}]}
